PassengerID,PassengerFName,PassengerLName,DOB,Address,City,State,Zipcode
1,Rolland,Corss,8/15/68,0 Bellgrove Point,New Bedford,MA,2745
2,Adrien,Boxe,4/12/79,58 Corscot Crossing,Springfield,MA,1105
3,Harlene,Bateson,5/17/18,797 Lillian Court,Springfield,MA,1105
4,Prinz,O'Mohun,9/17/72,931 Forest Run Point,Worcester,MA,1654
5,Ardath,Duffrie,1/31/61,158 Division Circle,Brockton,MA,2405
6,Cheri,Tregea,1/28/65,203 Holy Cross Center,Woburn,MA,1813
7,Ranique,Loan,12/17/82,6 Mayfield Drive,Cambridge,MA,2142
8,Chev,Josefsson,10/3/10,87498 Cambridge Court,Brockton,MA,2405
9,Shayne,Szanto,7/21/00,71866 Merry Pass,Boston,MA,2298
10,Kristo,Mochan,10/14/64,947 Armistice Way,Brockton,MA,2405
11,Orland,Crankshaw,10/1/18,782 Stang Trail,Cambridge,MA,2142
12,Myrvyn,Frise,12/9/93,593 Schlimgen Junction,Cambridge,MA,2142
13,Ara,McPaike,9/26/16,36 Oak Valley Point,Boston,MA,2114
14,Lewes,Guitt,4/6/75,14 Northridge Drive,Springfield,MA,1152
15,Daune,Caraher,12/24/01,235 Blue Bill Park Street,Springfield,MA,1129
16,Curcio,Ossenna,1/27/68,48 Moland Alley,Worcester,MA,1610
17,Waylan,Gaunter,8/25/11,7 Nobel Avenue,Boston,MA,2283
18,Cheston,Parsonson,5/16/87,3 Kipling Street,Boston,MA,2114
19,Myrna,Barnbrook,10/11/01,24 Vermont Street,Boston,MA,2124
20,Bartolemo,Mithan,5/15/86,747 Kensington Plaza,Woburn,MA,1813
21,Bennie,MacKenney,8/28/61,6 Holmberg Terrace,Springfield,MA,1105
22,Randee,Carde,3/14/97,8957 Rusk Lane,Cambridge,MA,2142
23,Boot,Hotson,3/26/64,6082 Orin Terrace,New Bedford,MA,2745
24,Hernando,Schust,9/15/74,3 Elka Center,Portsmouth,NH,214
25,Myrle,Rule,11/23/74,491 Meadow Vale Parkway,Boston,MA,2109
26,Bunny,Entwhistle,12/21/11,85 Merrick Place,Lynn,MA,1905
27,Wiley,Amesbury,11/9/97,212 Annamark Court,Brockton,MA,2405
28,Lee,Audibert,11/1/97,8893 Calypso Hill,Springfield,MA,1152
29,Evania,Boulden,8/29/78,84042 Fieldstone Way,Springfield,MA,1105
30,Morgan,Grayham,10/22/94,7374 American Ash Street,Boston,MA,2208
31,Reeta,Liccardo,3/4/13,46 Cottonwood Park,Boston,MA,2208
32,Hadrian,Compfort,7/9/73,4 Summit Point,Worcester,MA,1654
33,Nils,Rosier,8/16/79,07216 Scofield Point,Springfield,MA,1105
34,Hedwig,Quarrell,10/3/96,2 Eastwood Crossing,Manchester,NH,3105
35,Dorine,Dimmer,9/23/10,7 Hintze Place,Worcester,MA,1654
36,Orsa,Witsey,2/18/01,0111 Gerald Alley,Brockton,MA,2405
37,Zia,Eloi,1/18/61,8351 David Trail,Boston,MA,2114
38,Kelsey,Viccars,11/14/03,93707 American Avenue,Brockton,MA,2405
39,Desmund,Wych,2/9/03,42 Westerfield Place,Boston,MA,2104
40,Elizabeth,Dunnan,5/30/60,42 High Crossing Center,Newton,MA,2458
41,Gizela,French,5/28/11,3717 Fremont Pass,Boston,MA,2163
42,Cecil,Horsefield,3/18/80,3890 Canary Park,Boston,MA,2124
43,Vally,Daid,8/31/04,13 Moose Way,Brockton,MA,2305
44,Gabrila,Drife,5/21/83,9 Paget Junction,Boston,MA,2163
45,Tyne,Barthorpe,5/25/21,67397 Schurz Avenue,Boston,MA,2163
46,Timmie,Gres,4/21/63,91766 4th Court,Springfield,MA,1105
47,Rebbecca,Griniov,3/12/60,0579 Heath Trail,Springfield,MA,1105
48,Irvin,Niland,6/30/97,81 Little Fleur Drive,Boston,MA,2104
49,Gennifer,Flinn,2/28/00,86 Michigan Park,Watertown,MA,2472
50,Pet,Grzesiak,5/29/08,33 Eagle Crest Alley,Worcester,MA,1610
51,Libbi,Esler,6/8/14,1 Harbort Road,Springfield,MA,1114
52,Redd,Fever,11/22/16,4 Brickson Park Circle,Boston,MA,2208
53,Randy,Wakeley,12/31/98,844 Wayridge Junction,Newton,MA,2458
54,Fonzie,Fisbburne,4/20/04,81780 Briar Crest Place,Cambridge,MA,2142
55,Lazaro,Beetlestone,7/21/61,1 Clemons Road,Boston,MA,2203
56,Harwell,Putton,1/8/07,969 Onsgard Alley,Worcester,MA,1605
57,Jourdan,Aymer,1/4/65,85 Hintze Center,Lynn,MA,1905
58,Madalena,Gatsby,6/10/81,74203 Miller Terrace,Portsmouth,NH,214
59,Randie,Macy,11/29/72,5413 Lotheville Court,Boston,MA,2298
60,Nesta,Clace,7/25/69,4056 Prairieview Point,Brockton,MA,2405
61,Ferrel,Sidgwick,5/27/90,29431 7th Trail,Springfield,MA,1129
62,Osborn,Challender,5/11/81,72 Emmet Street,Waltham,MA,2453
63,Renaud,Swepstone,6/13/87,6 Reinke Lane,Boston,MA,2124
64,Melessa,Gerriet,2/14/83,54851 Canary Terrace,Boston,MA,2298
65,Ddene,Stirland,8/26/96,733 Westerfield Avenue,Worcester,MA,1654
66,Hinze,Bremond,11/6/05,911 Vermont Circle,Boston,MA,2208
67,Florida,Eddowis,1/12/67,76725 Mitchell Plaza,Boston,MA,2109
68,Norby,Toffler,7/17/09,4100 Stuart Court,Brockton,MA,2305
69,Harrie,Cappleman,11/10/98,720 Fremont Terrace,Springfield,MA,1129
70,Mychal,Blacksell,8/30/83,36 Northport Lane,Springfield,MA,1114
71,Harland,Deakin,12/19/18,8 Warrior Center,Springfield,MA,1105
72,Jourdan,Calkin,4/6/60,1 Mcbride Crossing,Boston,MA,2124
73,Christophorus,Shawell,2/2/02,52 International Plaza,Boston,MA,2163
74,Ruperto,Whatham,2/9/11,58957 Huxley Road,Waltham,MA,2453
75,Brigitta,Iacobetto,11/4/21,9 Ridgeview Avenue,Portsmouth,NH,214
76,Cayla,Ballintyne,6/20/05,9 Golf Course Circle,Boston,MA,2208
77,Wade,Dobby,8/24/62,6 Cardinal Place,Brockton,MA,2305
78,Mayne,Cavan,3/28/97,28 Mendota Crossing,Brockton,MA,2305
79,Dorisa,Hillett,11/7/10,66 Tony Avenue,Springfield,MA,1114
80,Aurore,Klejin,8/7/73,12 Lerdahl Lane,Boston,MA,2203
81,Thane,Saville,12/31/64,81618 Ridgeway Plaza,Boston,MA,2283
82,Clarie,Blewmen,5/13/18,3 Caliangt Plaza,Boston,MA,2104
83,Wernher,Galland,6/2/84,5577 Mallard Road,Boston,MA,2119
84,Ivory,Swinden,4/9/66,4 Bellgrove Circle,Newton,MA,2162
85,Ase,Puddle,1/16/19,1120 Di Loreto Alley,Watertown,MA,2472
86,Elijah,Skep,12/24/93,479 Karstens Center,Newton,MA,2162
87,Drucie,Siverns,2/14/95,488 Hoard Plaza,Boston,MA,2208
88,Rudolfo,Deyes,8/23/06,7061 Hoepker Way,Woburn,MA,1813
89,Penny,Jaumet,10/18/68,43563 Wayridge Alley,Cambridge,MA,2142
90,Junie,Skea,1/4/75,503 Elgar Way,Boston,MA,2109
91,Cos,Gobourn,1/6/92,68620 Lighthouse Bay Avenue,Boston,MA,2114
92,Bailie,Menichino,7/5/97,65119 Dottie Lane,Boston,MA,2208
93,Liv,Ferraraccio,7/25/87,0 Sage Street,New Bedford,MA,2745
94,Gael,Barstowk,8/12/83,8 Drewry Court,Boston,MA,2298
95,Eveline,Hutson,8/11/00,48 Bonner Center,Manchester,NH,3105
96,Patty,Seaborn,12/27/14,90217 Reindahl Hill,Manchester,NH,3105
97,Martha,Openshaw,12/15/89,54996 Rusk Terrace,Worcester,MA,1605
98,Donica,Cokely,5/28/14,62907 Rockefeller Parkway,Boston,MA,2114
99,Vick,Badder,2/22/92,163 Randy Way,Springfield,MA,1114
100,Cob,Halversen,5/19/61,96657 Grasskamp Plaza,Springfield,MA,1114
101,Jessee,Ginley,7/10/20,2819 Bobwhite Avenue,Worcester,MA,1610
102,Ophelie,Gecke,5/10/89,8 School Trail,Portsmouth,NH,3804
103,Jerrold,Burkinshaw,7/30/86,18 Menomonie Junction,Boston,MA,2104
104,Antoni,Garn,6/15/81,66 Messerschmidt Street,Watertown,MA,2472
105,Doro,Dundon,1/24/14,29 Coleman Court,Worcester,MA,1605
106,Duky,Dabnot,3/25/60,9 Welch Point,Cambridge,MA,2142
107,Byrle,Cucuzza,6/19/95,44 Dunning Pass,Portsmouth,NH,214
108,Yasmin,Shory,6/2/85,20033 Sachtjen Park,Boston,MA,2124
109,Sarge,Liddicoat,1/8/88,437 Mendota Terrace,Boston,MA,2119
110,Rianon,Liptrot,1/21/65,33 Warrior Park,Boston,MA,2163
111,Claudie,Courson,1/26/01,19177 Warner Terrace,Springfield,MA,1114
112,Lydon,Kemer,5/22/07,185 Menomonie Court,Brockton,MA,2305
113,Garrett,Beauly,2/19/80,9444 Southridge Way,Watertown,MA,2472
114,Bryan,Lace,10/9/05,264 Moland Pass,Boston,MA,2216
115,Felice,Laughlin,6/13/98,095 Clarendon Terrace,Worcester,MA,1605
116,Caitlin,Hatherill,12/14/94,297 Rigney Point,Boston,MA,2203
117,Baldwin,Pancost,6/8/15,267 Hanover Circle,Springfield,MA,1152
118,Rob,Woodyatt,5/9/06,5362 Florence Road,New Bedford,MA,2745
119,Ellynn,Caulwell,7/18/80,4493 Karstens Plaza,Springfield,MA,1114
120,Sukey,Canellas,11/22/13,5 Eastwood Crossing,Boston,MA,2114
121,Audie,Ballin,8/8/99,69 Moose Point,Springfield,MA,1114
122,Leigha,Jayes,9/17/12,641 Red Cloud Road,Portsmouth,NH,214
123,Stevana,Bonicelli,1/21/89,2685 Manitowish Parkway,Springfield,MA,1114
124,Jazmin,Scudder,5/19/02,013 Becker Road,Manchester,NH,3105
125,Jordain,Quene,8/28/84,98 Monterey Street,Springfield,MA,1152
126,Rosamond,Hodges,9/30/87,102 Darwin Way,Manchester,NH,3105
127,Kippy,Brazier,7/7/69,130 Golden Leaf Plaza,Boston,MA,2208
128,Jakie,Gibbett,12/2/62,2 Crescent Oaks Park,Worcester,MA,1610
129,Jacquie,Hayworth,12/16/96,1 Sundown Road,Brockton,MA,2305
130,Kinna,Whitington,1/28/92,18 Dapin Lane,Watertown,MA,2472
131,Orel,Poolman,3/23/15,25942 Forster Drive,Boston,MA,2109
132,Glynn,Emerine,10/4/21,40 Hoard Circle,Boston,MA,2208
133,Sarina,Lyall,12/5/85,30 Bunting Park,New Bedford,MA,2745
134,Denna,Shakespeare,2/9/75,55 Scoville Street,Boston,MA,2163
135,Burch,Mitrikhin,12/28/08,832 Merrick Hill,Portsmouth,NH,214
136,Leshia,McCane,1/18/85,5 Hoepker Terrace,Boston,MA,2114
137,Guinna,Oris,7/28/70,7 Village Place,Boston,MA,2208
138,Phoebe,Fendley,4/13/19,13012 Manitowish Drive,Boston,MA,2163
139,Katalin,Marsie,3/15/14,8001 Derek Way,Springfield,MA,1152
140,Georgeanna,Garling,9/12/75,8 Randy Way,Portsmouth,NH,3804
141,Ally,Cadwaladr,2/18/66,2 Fremont Avenue,Newton,MA,2458
142,Zenia,Pleasants,3/20/85,8 Marquette Way,Cambridge,MA,2142
143,Falito,Danilewicz,7/1/21,1255 Heffernan Trail,Springfield,MA,1114
144,Bernie,Dalyell,12/8/88,399 Haas Terrace,Worcester,MA,1605
145,Tyne,Vondruska,12/19/68,9161 Mallory Plaza,Boston,MA,2114
146,Philbert,Larchiere,10/22/92,97 Elgar Lane,Worcester,MA,1610
147,Elvina,Hightown,4/22/03,82744 Pine View Trail,Brockton,MA,2405
148,Kyla,Leith-Harvey,11/3/20,73 Dakota Place,Watertown,MA,2472
149,Gayel,Aldersley,6/12/16,8 Rutledge Plaza,Brockton,MA,2305
150,Louella,Pardew,12/16/61,6 Sauthoff Junction,Waltham,MA,2453
151,Urbanus,Hatherleigh,5/4/72,8 Ludington Road,Worcester,MA,1605
152,Philly,Marrows,2/21/95,30 Golden Leaf Pass,Worcester,MA,1610
153,Drona,Durrell,5/8/96,72810 Cordelia Circle,Springfield,MA,1105
154,Jordan,Kenworthey,11/6/17,92 Stuart Junction,Boston,MA,2216
155,Leoine,Dailey,5/2/73,6 Garrison Terrace,Newton,MA,2162
156,Kimberlee,Tommeo,2/2/96,62669 Transport Pass,Boston,MA,2283
157,Arlen,Wearden,12/9/11,5375 Cambridge Junction,Boston,MA,2163
158,Hurleigh,McAlester,11/16/10,67762 Memorial Terrace,Boston,MA,2119
159,Rozalie,Simeoni,7/12/65,429 Bashford Terrace,Boston,MA,2298
160,Kelwin,Petschel,12/6/76,2 Dennis Trail,Worcester,MA,1654
161,Birch,Turbill,5/21/93,85 Hooker Point,Newton,MA,2458
162,Vida,Douberday,11/6/00,641 Columbus Hill,Worcester,MA,1610
163,Kelby,McPhelim,9/27/60,7 Green Junction,Boston,MA,2163
164,Jocelin,Labb,7/14/92,6505 Union Pass,Boston,MA,2298
165,Starla,Leving,1/16/61,27103 Northwestern Street,Cambridge,MA,2142
166,Coreen,Petheridge,12/3/73,0 Maywood Street,Cambridge,MA,2142
167,Fiann,De Atta,2/12/70,849 Dwight Drive,Watertown,MA,2472
168,Quintilla,Sharpin,2/25/15,504 Hanover Lane,New Bedford,MA,2745
169,Godard,Milner,7/25/69,0 Prairie Rose Avenue,Woburn,MA,1813
170,Waiter,Dacres,12/13/02,0 Mallory Plaza,Woburn,MA,1813
171,Dulcia,Crockett,2/28/66,549 Sommers Center,Boston,MA,2114
172,Bobby,Cawdron,5/27/95,4161 Debs Parkway,Waltham,MA,2453
173,Natassia,Giacomo,9/14/96,0 Division Road,Manchester,NH,3105
174,Magdaia,Gwinnell,6/11/10,26434 Dakota Pass,Boston,MA,2124
175,Lesly,Toppin,9/8/05,7620 Packers Terrace,Boston,MA,2104
176,Tades,Blade,3/25/72,869 Springview Park,Worcester,MA,1605
177,Ulric,Aykroyd,3/7/01,521 Ramsey Place,Worcester,MA,1654
178,Woodie,Somers,4/28/91,73 Westend Road,Boston,MA,2216
179,Ede,Jewel,9/27/17,404 Redwing Drive,Brockton,MA,2305
180,Clementia,A'Barrow,1/22/93,13 Declaration Park,Lynn,MA,1905
181,Helyn,Bangle,4/17/92,99 Oak Terrace,Worcester,MA,1605
182,Claudia,Cockshott,5/4/75,5 Hollow Ridge Drive,Worcester,MA,1654
183,Lin,Benezet,12/3/94,848 7th Court,Boston,MA,2109
184,Kassi,Mandal,8/16/03,8 Brown Avenue,Boston,MA,2216
185,Pansie,Durham,1/30/80,91739 Toban Road,Boston,MA,2104
186,Glennis,Schenkel,2/7/93,2 3rd Court,Boston,MA,2163
187,Sapphira,Lansley,7/28/06,2 Northfield Court,Watertown,MA,2472
188,Sallyann,Amiss,12/17/77,68 Sundown Plaza,Lynn,MA,1905
189,Berkly,Boulden,8/28/05,09913 Florence Road,Worcester,MA,1654
190,Dal,Leadstone,5/28/95,6 Truax Center,Boston,MA,2124
191,Codi,Dight,4/1/87,11414 Corry Circle,Springfield,MA,1152
192,Catina,Soden,6/12/17,66543 Welch Trail,Springfield,MA,1152
193,Sharl,Basil,7/14/80,568 Saint Paul Center,Boston,MA,2163
194,Hortensia,Guthrie,8/15/85,42 Burning Wood Point,New Bedford,MA,2745
195,Iago,Beggini,10/26/98,86 Ruskin Drive,Watertown,MA,2472
196,Skip,Vlasin,3/31/92,787 Dawn Drive,Boston,MA,2119
197,Alyce,Middle,12/2/92,00070 Brentwood Junction,Boston,MA,2298
198,Lowe,Musico,2/14/76,081 Pearson Pass,Cambridge,MA,2142
199,Augusto,McEntegart,6/22/09,7783 Jenna Park,Boston,MA,2119
200,Ericka,Ortes,1/27/95,349 Coolidge Terrace,Springfield,MA,1114
201,Arlina,Grint,12/17/85,31762 Marcy Avenue,Boston,MA,2298
202,Nicoli,McCrillis,8/1/60,3493 Blaine Trail,Manchester,NH,3105
203,Ralina,MacGeffen,8/31/97,34 Namekagon Center,Worcester,MA,1654
204,Viola,Ferrari,4/18/10,616 Harper Alley,Springfield,MA,1105
205,Tallie,Lamb-shine,11/9/09,94234 Havey Parkway,New Bedford,MA,2745
206,Kinna,Caldecutt,9/6/17,8244 Shelley Junction,Boston,MA,2163
207,Maible,Dutton,12/14/79,3 Eliot Junction,Manchester,NH,3105
208,Drusilla,Mepsted,1/24/95,9918 Cody Hill,Brockton,MA,2305
209,Amitie,Mortell,7/25/11,154 Scoville Alley,Portsmouth,NH,214
210,Connie,Zanicchelli,9/22/97,5323 Derek Plaza,Boston,MA,2114
211,Philbert,Stubley,10/16/88,5401 Tennyson Park,Brockton,MA,2405
212,Karl,Brammar,6/9/95,6233 Crest Line Lane,Boston,MA,2104
213,Anett,Di Bartolommeo,7/28/07,5087 Chive Alley,Worcester,MA,1605
214,Noelani,Fomichyov,6/28/82,1848 Jenna Avenue,New Bedford,MA,2745
215,Bastian,Dach,10/23/05,26 Scoville Crossing,Worcester,MA,1610
216,Kenny,Chadwick,9/5/13,111 Village Crossing,Boston,MA,2104
217,Christalle,Chaloner,6/17/14,2 Florence Court,Worcester,MA,1654
218,Hershel,Godin,9/2/93,4 Bluestem Way,Manchester,NH,3105
219,Gawen,Orwin,3/1/19,41217 Tony Plaza,Boston,MA,2283
220,Kristina,Theobold,10/23/70,4 Ruskin Center,Newton,MA,2162
221,Desmond,Akhurst,5/1/91,12857 Parkside Plaza,Boston,MA,2124
222,Kilian,Muro,8/2/00,14639 Green Ridge Plaza,Boston,MA,2114
223,Elsi,Woolham,8/16/21,5386 Vahlen Crossing,Watertown,MA,2472
224,Valli,Dodwell,4/13/87,4874 Steensland Avenue,Newton,MA,2162
225,Kit,Paolotto,7/21/74,4 Steensland Plaza,Springfield,MA,1114
226,Far,Coie,11/25/89,673 Reindahl Point,Boston,MA,2216
227,Byrom,De Robertis,9/20/80,7 Sunbrook Lane,Newton,MA,2162
228,Darryl,Tink,4/24/84,916 Spaight Avenue,Springfield,MA,1129
229,Callie,Ulster,11/18/82,9 Lyons Road,Brockton,MA,2305
230,Elena,Rickword,10/12/69,72 Duke Plaza,Boston,MA,2119
231,Janela,Andrasch,12/9/12,9 Basil Center,Boston,MA,2203
232,Kelsi,Blakeway,6/14/69,99 Truax Court,Springfield,MA,1114
233,Nikola,Ridde,6/30/78,9 Cherokee Trail,Watertown,MA,2472
234,Sissie,Meadmore,4/17/79,71803 Harbort Court,Boston,MA,2104
235,Adora,Vivyan,11/27/68,001 Di Loreto Park,Brockton,MA,2305
236,Erda,Etteridge,10/31/14,92961 Morningstar Center,Boston,MA,2163
237,Brig,MacMickan,5/2/68,88 School Hill,Boston,MA,2208
238,Kimmy,Kob,5/10/88,296 Ohio Plaza,Newton,MA,2458
239,Rosene,Bakewell,6/27/70,4680 Oxford Plaza,Boston,MA,2163
240,Terrel,Reide,5/12/95,1 Division Plaza,Boston,MA,2119
241,Brantley,Rothschild,5/22/94,06700 Gale Center,Boston,MA,2216
242,Daniel,Cubbino,10/2/98,436 Ruskin Road,Portsmouth,NH,3804
243,Ryon,Baton,6/16/88,87 Lighthouse Bay Road,Boston,MA,2114
244,Alex,Nares,12/14/90,923 Crest Line Hill,Woburn,MA,1813
245,Aurore,Rodders,11/16/13,8 Meadow Vale Parkway,Boston,MA,2298
246,Berenice,Crumbleholme,2/10/86,6553 Hermina Circle,Springfield,MA,1105
247,Ertha,Pigott,4/4/71,63932 Dayton Hill,Woburn,MA,1813
248,Durant,Denerley,8/22/13,81725 Homewood Lane,Boston,MA,2203
249,Yule,Fountian,1/4/21,5 Sloan Circle,Cambridge,MA,2142
250,Dennie,Margaret,12/30/74,8 Warbler Drive,Portsmouth,NH,3804
251,Fernando,Tather,10/10/01,0 Bartelt Trail,Worcester,MA,1610
252,Norry,McCallion,10/3/71,67 Sunnyside Plaza,Boston,MA,2124
253,Antons,Trousdale,9/10/67,6 Boyd Terrace,Boston,MA,2119
254,Homerus,Chartre,7/25/65,77 Judy Point,Cambridge,MA,2142
255,Meredith,Olerenshaw,6/2/86,42 Continental Crossing,Watertown,MA,2472
256,Elora,Branford,8/24/68,20168 Hansons Court,Portsmouth,NH,214
257,Helenka,Easlea,3/23/78,79 Scofield Parkway,Boston,MA,2104
258,Kassia,Cheetham,6/8/67,73318 Texas Junction,Boston,MA,2203
259,Calley,Kaye,8/13/12,65824 Katie Terrace,Boston,MA,2124
260,Clerc,Milius,12/2/62,943 Old Gate Parkway,Boston,MA,2283
261,Chad,Magowan,4/29/94,0532 Morrow Alley,Boston,MA,2124
262,Johny,Guymer,7/18/21,37 Chinook Crossing,Springfield,MA,1114
263,Julieta,Swindells,10/29/16,70 West Junction,Boston,MA,2283
264,Ferdinanda,Bricksey,8/19/77,9 Del Sol Avenue,New Bedford,MA,2745
265,Micky,Winckle,1/8/86,254 Pennsylvania Hill,Boston,MA,2203
266,Desdemona,Bowld,7/19/88,54 Kenwood Road,Springfield,MA,1105
267,Nicky,Gambles,1/16/76,90894 David Avenue,Boston,MA,2163
268,Howey,McKinlay,1/18/18,0343 Bashford Park,Boston,MA,2114
269,Alexandre,Saffen,1/6/03,37865 Vermont Drive,Brockton,MA,2405
270,Dimitry,Lyver,4/28/21,4381 Algoma Way,Woburn,MA,1813
271,Inesita,Heyward,7/12/21,15703 Anzinger Way,Boston,MA,2114
272,Fraser,Seamon,11/10/86,4911 Mockingbird Way,Worcester,MA,1605
273,Sly,Jahns,12/5/67,08 Mifflin Alley,Watertown,MA,2472
274,Ephrayim,Hellis,10/15/17,65 Kedzie Park,Portsmouth,NH,214
275,Ninnette,Bastick,12/14/81,803 Ridgeway Lane,Newton,MA,2162
276,Katrina,Pifford,12/7/65,2 Darwin Alley,Portsmouth,NH,214
277,Arie,Burnes,6/21/94,08 Ridgeway Terrace,Boston,MA,2208
278,Chickie,Leagas,5/6/64,0 Sunnyside Pass,Boston,MA,2298
279,Mellie,Owtram,1/25/17,59 Brown Hill,Boston,MA,2203
280,Emmalee,Blackwood,7/21/77,2 Menomonie Junction,Worcester,MA,1605
281,Ivan,Geerits,6/28/93,55 Westport Trail,Springfield,MA,1105
282,Tressa,Chatten,3/14/08,76 Milwaukee Street,Boston,MA,2283
283,Gerhard,Gopsell,6/6/95,3 Mallory Parkway,Waltham,MA,2453
284,Aleksandr,Edmonston,11/12/70,441 4th Point,Boston,MA,2104
285,Westleigh,Woodland,11/1/98,56 Memorial Court,Brockton,MA,2305
286,North,Menier,1/22/01,31365 Veith Point,Manchester,NH,3105
287,Maryanne,Bruckstein,3/29/80,6169 Welch Hill,Woburn,MA,1813
288,Pebrook,McCathay,8/1/62,2 La Follette Alley,Brockton,MA,2405
289,Sharyl,Feeley,3/10/73,75409 Service Road,New Bedford,MA,2745
290,Francisca,Metcalf,6/9/04,91 Arapahoe Plaza,Springfield,MA,1105
291,Nikaniki,Fairbrass,8/30/99,8 Moland Alley,Waltham,MA,2453
292,Sydney,Espadater,6/5/92,31 Dunning Plaza,Boston,MA,2283
293,Ram,Skurm,7/27/87,09 Harper Circle,Watertown,MA,2472
294,Shelley,Patek,12/31/69,6447 Upham Crossing,Boston,MA,2104
295,Rubia,Ricart,1/20/84,11563 Schurz Terrace,Springfield,MA,1152
296,Carlin,Rizzardini,7/6/78,2716 Oakridge Center,Boston,MA,2208
297,Rose,Bassil,6/16/66,14 Dwight Parkway,Brockton,MA,2305
298,Cassaundra,Twizell,1/6/94,63344 Old Gate Plaza,Boston,MA,2109
299,Samara,Stelljes,4/23/96,3 West Center,Boston,MA,2208
300,Garland,Dusting,1/12/63,93 Ridgeview Place,Woburn,MA,1813
301,Robers,Pigeon,8/4/18,7 Lunder Crossing,Manchester,NH,3105
302,Myrle,Lutty,10/29/09,34 Riverside Street,Portsmouth,NH,3804
303,Deana,Lyston,4/23/96,883 Hermina Hill,Portsmouth,NH,3804
304,Patsy,Hendriksen,2/8/65,7 Buena Vista Court,Newton,MA,2458
305,Alvina,Penticoot,8/30/61,3 Sutherland Park,Boston,MA,2114
306,Octavia,Brabyn,11/22/65,06 Banding Terrace,Worcester,MA,1605
307,Phoebe,Skellern,7/20/05,32722 Magdeline Crossing,Springfield,MA,1129
308,Pietrek,MacInherney,10/10/00,51564 Ridgeview Hill,Lynn,MA,1905
309,Caryn,Tregea,8/22/79,1544 Hanover Road,Boston,MA,2203
310,Rennie,Hambrook,10/10/65,58 Kenwood Circle,Springfield,MA,1114
311,Merrily,D'eathe,5/20/99,407 Havey Avenue,Boston,MA,2298
312,Sigvard,McQuorkel,6/30/89,4354 Arrowood Plaza,Manchester,NH,3105
313,Germain,Orgee,8/21/16,8 Goodland Place,Boston,MA,2119
314,See,Westhofer,9/6/87,5 Shopko Lane,Springfield,MA,1129
315,Nanon,Cutchie,4/17/78,303 Prairieview Lane,Manchester,NH,3105
316,Jess,Polini,7/23/13,630 David Circle,Boston,MA,2216
317,Leeann,Rubinsky,7/27/78,75 Kinsman Plaza,Portsmouth,NH,3804
318,Britteny,Rann,8/9/75,1825 Briar Crest Hill,Manchester,NH,3105
319,Suzy,Dinneen,2/20/61,001 Cordelia Avenue,Springfield,MA,1129
320,Eugenius,Stilldale,7/26/17,42703 Ridge Oak Place,Boston,MA,2114
321,Harald,Kiendl,3/21/60,96 Nancy Road,New Bedford,MA,2745
322,Emmie,Morecombe,9/17/78,26900 Northland Park,Watertown,MA,2472
323,Beulah,Moseby,2/19/99,95 Towne Terrace,Boston,MA,2119
324,Xenia,Melbury,4/5/12,89389 Schiller Pass,Newton,MA,2162
325,Giffard,Howel,7/24/14,962 Lakeland Trail,Lynn,MA,1905
326,Nicolai,Gibbetts,11/10/16,60 Rieder Road,Newton,MA,2458
327,Craig,Lodwick,7/8/77,04 Bay Parkway,Brockton,MA,2305
328,Constancia,Kinglake,8/16/92,044 Badeau Plaza,Boston,MA,2114
329,Sibella,Renzo,6/21/83,44908 Vidon Alley,Springfield,MA,1114
330,Sarita,Hearson,10/28/19,2320 Golf Street,Newton,MA,2162
331,Lucita,Leehane,2/15/80,92 Tomscot Circle,Worcester,MA,1654
332,Ricki,Parcells,8/20/88,5485 Grim Drive,Springfield,MA,1129
333,Reagen,Tetther,11/27/03,5 Mifflin Terrace,Lynn,MA,1905
334,Seka,Skipping,10/31/67,4 Novick Lane,Springfield,MA,1152
335,Derward,Bendixen,11/24/21,4 Division Lane,Springfield,MA,1114
336,Horatia,Walkden,6/20/06,44185 Carioca Alley,Portsmouth,NH,214
337,Viviene,Hatz,6/14/72,07 Forster Circle,Springfield,MA,1152
338,Cally,MacConnell,5/29/14,71 Springview Drive,Springfield,MA,1152
339,Wylma,Clutterham,1/24/97,5497 Canary Hill,Boston,MA,2114
340,Tandi,Fretwell,12/10/68,2 Tomscot Street,Brockton,MA,2305
341,Bron,Nafzger,12/18/91,9 Toban Terrace,Springfield,MA,1129
342,Torre,Delbergue,8/16/76,4320 Meadow Valley Lane,Boston,MA,2114
343,Horton,Blackwood,8/16/11,36 Burning Wood Park,Springfield,MA,1129
344,Vannie,Feehery,9/9/92,6 Warrior Point,Springfield,MA,1152
345,Alaine,Longmaid,9/13/09,64 Steensland Way,Lynn,MA,1905
346,Caryl,Cordier,5/2/84,4237 Golf Course Drive,New Bedford,MA,2745
347,Audrie,Hambidge,10/5/64,74 Colorado Pass,Boston,MA,2203
348,Gordie,Cayser,2/15/12,3 Merry Park,Boston,MA,2104
349,Alla,Jedrachowicz,12/12/90,8 Blackbird Terrace,Boston,MA,2298
350,Vincenz,Ech,1/6/61,87315 Pawling Hill,Boston,MA,2208
351,Victoria,Issatt,2/15/19,4792 Delaware Plaza,Boston,MA,2124
352,Everard,MacMeanma,7/16/67,99892 Mayfield Point,Springfield,MA,1152
353,Pen,Knoton,9/12/18,263 Dennis Point,Brockton,MA,2405
354,Fletch,Bickerton,11/18/62,82 Lunder Park,Worcester,MA,1610
355,Johnathan,Vaughan-Hughes,9/26/72,56895 Spaight Avenue,Worcester,MA,1610
356,Jacky,Giraudeau,10/8/72,3079 Susan Circle,Springfield,MA,1129
357,Marty,Biddlestone,3/8/91,19 Marcy Terrace,Waltham,MA,2453
358,Jared,Markel,3/30/93,46803 Columbus Junction,Portsmouth,NH,3804
359,Teddie,Pike,4/5/65,7 Hayes Way,Boston,MA,2203
360,Catlin,Checchetelli,2/6/21,88 Independence Road,Waltham,MA,2453
361,Monty,Standfield,6/20/70,819 Barby Way,Newton,MA,2458
362,Niccolo,Greatbach,8/26/21,381 Lien Place,Portsmouth,NH,214
363,Silvan,Edwicker,1/23/66,75681 Killdeer Junction,New Bedford,MA,2745
364,Melly,China,12/29/93,85888 Prairie Rose Hill,New Bedford,MA,2745
365,Courtney,Sandells,3/25/87,4783 Bunker Hill Point,New Bedford,MA,2745
366,Stirling,Gascar,12/16/20,10 Anniversary Trail,Newton,MA,2162
367,Diandra,Union,4/16/18,42 Little Fleur Center,Portsmouth,NH,3804
368,Roobbie,Blumson,8/24/98,874 Menomonie Park,Woburn,MA,1813
369,Marcile,Wharfe,7/24/02,16 East Terrace,Boston,MA,2208
370,Porty,Beggan,7/9/86,61900 Northfield Terrace,Springfield,MA,1152
371,Evanne,Groven,9/19/60,49730 Dryden Hill,Waltham,MA,2453
372,Jennee,Tolcharde,10/24/73,5 Manufacturers Place,Worcester,MA,1605
373,Barbabas,Dooher,10/23/87,29455 Vermont Hill,Boston,MA,2114
374,Raphael,Vlasyuk,10/22/66,7907 Sauthoff Way,Boston,MA,2124
375,Johna,Rafferty,9/8/21,736 Bayside Court,Newton,MA,2162
376,Heriberto,Tracey,4/27/89,23129 Oak Valley Alley,Manchester,NH,3105
377,Sib,Hazeldene,4/8/07,9 Drewry Alley,Springfield,MA,1129
378,Karen,Montes,8/7/79,2826 Pawling Plaza,Boston,MA,2203
379,Reed,Eede,3/6/80,48902 Helena Avenue,Cambridge,MA,2142
380,Wilie,Bras,4/7/67,48286 Eliot Point,New Bedford,MA,2745
381,Tobiah,Smail,4/9/81,61 Westridge Circle,Manchester,NH,3105
382,Mead,Dandison,5/29/09,62235 Sommers Terrace,Newton,MA,2162
383,Shandy,Underdown,2/10/63,4096 Dawn Crossing,Worcester,MA,1610
384,Cherye,Wilkinson,3/20/03,0051 Jay Center,Newton,MA,2458
385,Hurley,Kasparski,12/24/60,6 Arizona Drive,Boston,MA,2283
386,Enoch,Norcliff,2/7/87,2 Rusk Avenue,Newton,MA,2162
387,Marietta,Cherrison,12/27/76,7286 Beilfuss Trail,Boston,MA,2114
388,Gerick,Fuller,6/11/68,1 Stuart Circle,Manchester,NH,3105
389,Irving,Lambertz,9/29/82,77001 2nd Lane,Boston,MA,2104
390,Joscelin,Gehrels,7/10/90,50159 Almo Street,Boston,MA,2283
391,Farah,McCaffery,2/7/09,4297 Pine View Plaza,Brockton,MA,2405
392,Nobie,Kairns,8/31/95,7082 Scofield Plaza,Newton,MA,2458
393,Loren,Ridewood,4/17/15,8758 Corben Way,Brockton,MA,2405
394,Jill,Jamson,5/9/62,6 Anhalt Lane,Boston,MA,2283
395,Hyman,Staunton,5/26/97,1748 Stephen Point,Newton,MA,2458
396,Iggie,Bevis,6/12/83,25821 Warner Crossing,Portsmouth,NH,214
397,Hilliary,Neagle,12/26/64,0 School Terrace,Cambridge,MA,2142
398,Sammy,Bertie,6/29/98,89622 Hagan Pass,Boston,MA,2163
399,Leigh,Cornforth,8/24/69,4 Columbus Trail,Boston,MA,2203
400,Nissy,Lilbourne,11/3/10,73 Del Sol Drive,Boston,MA,2104
401,Collie,Ferrar,7/8/63,76 Commercial Junction,Portsmouth,NH,3804
402,Idette,Ewen,5/11/60,79311 Bellgrove Park,Boston,MA,2104
403,Noella,Handaside,8/26/06,825 Sauthoff Alley,Watertown,MA,2472
404,Devora,Hymor,12/22/98,1 Sugar Way,Boston,MA,2124
405,Zacharias,Amoore,2/9/00,330 Charing Cross Way,Springfield,MA,1105
406,Tamarra,Slayton,1/19/87,941 Rockefeller Park,New Bedford,MA,2745
407,Lotta,Camois,7/24/75,80758 Tennessee Road,Portsmouth,NH,3804
408,Tan,Girardez,10/26/10,972 Dexter Center,Brockton,MA,2405
409,Roma,Piotrkowski,11/15/17,4 Hazelcrest Road,Springfield,MA,1105
410,Lorraine,Ugoletti,8/1/17,90928 Rieder Alley,Woburn,MA,1813
411,Erda,Bunten,2/5/97,575 Derek Way,Boston,MA,2203
412,Glenn,O'Mullally,8/10/86,010 Sage Pass,Lynn,MA,1905
413,Lanie,Pollicote,3/23/80,00 Ridgeview Crossing,Boston,MA,2104
414,Happy,Ferrone,6/9/82,4 Rowland Lane,Cambridge,MA,2142
415,Amaleta,Grinnov,2/28/91,0 Dayton Circle,Boston,MA,2283
416,Elberta,Castelin,1/8/20,017 Lawn Circle,Woburn,MA,1813
417,Dorisa,Croxley,6/28/60,55 Ohio Parkway,Portsmouth,NH,3804
418,Husain,Chappelow,11/21/64,6 Haas Alley,Worcester,MA,1610
419,Rainer,Algy,5/20/61,68073 Donald Alley,Springfield,MA,1129
420,Kendell,Crebott,8/7/96,3 Mockingbird Court,Springfield,MA,1129
421,Marielle,Minchinton,1/8/08,24 Gale Park,Boston,MA,2114
422,Alicea,Willoughley,2/8/65,6 Cody Center,Brockton,MA,2405
423,Kristina,Goodisson,9/10/72,00 Moland Junction,Newton,MA,2162
424,Rois,Pedrollo,6/5/09,9 Claremont Avenue,Lynn,MA,1905
425,Dermot,Ingilson,3/23/65,2 Annamark Hill,Boston,MA,2208
426,Susie,Mountlow,8/7/86,646 Hermina Pass,Worcester,MA,1610
427,Berrie,Janousek,8/31/91,8 Northview Court,Watertown,MA,2472
428,Renata,Preshous,5/6/05,94441 Walton Crossing,Boston,MA,2119
429,Marlon,Ossipenko,3/25/76,90 Dwight Alley,Boston,MA,2114
430,Garvin,Blunt,10/12/82,2256 Holmberg Crossing,Manchester,NH,3105
431,Jessy,Greeson,8/11/17,2 Roth Center,Worcester,MA,1605
432,Hadrian,Giffaut,4/28/20,649 Commercial Way,Springfield,MA,1105
433,Boone,Filippyev,1/9/07,674 Huxley Trail,Manchester,NH,3105
434,Jewel,Minihan,1/27/00,65 Clove Center,Boston,MA,2216
435,Kennith,Barkaway,12/6/92,403 Bunting Avenue,Brockton,MA,2305
436,Hewie,De Atta,3/24/84,110 Bashford Plaza,Brockton,MA,2405
437,Kinny,Elven,12/18/79,977 Roth Point,Boston,MA,2104
438,Valida,Lisciandro,1/27/94,782 Lukken Street,Woburn,MA,1813
439,Olia,Rushmer,12/4/85,3740 South Lane,Manchester,NH,3105
440,Grantham,Ledwitch,8/28/21,6609 Shasta Hill,Watertown,MA,2472
441,Irving,Hercules,8/8/87,4525 Hudson Lane,Springfield,MA,1105
442,Merrilee,Rignall,4/9/00,825 Merrick Way,Cambridge,MA,2142
443,Jade,Dellatorre,3/26/91,03 Sugar Way,Springfield,MA,1129
444,Ddene,Lemary,2/6/70,0094 Ridge Oak Plaza,Worcester,MA,1610
445,Melloney,Dugall,10/11/85,137 Nobel Drive,Boston,MA,2114
446,Roanna,Dubber,1/14/13,75923 Hintze Road,Boston,MA,2163
447,Omero,Worvell,2/9/95,47228 Westridge Drive,Boston,MA,2203
448,Kermy,Coggles,2/4/65,15765 Lotheville Parkway,Worcester,MA,1610
449,Geoffry,Markussen,6/1/66,56 Veith Place,Watertown,MA,2472
450,Romeo,Doust,11/14/70,31 Forest Dale Park,Brockton,MA,2405
451,Josiah,Giriardelli,7/28/61,25 Iowa Way,Portsmouth,NH,214
452,Arlin,Ballinghall,5/28/11,000 Eliot Avenue,Springfield,MA,1129
453,Gloriana,Ketton,5/20/72,53583 Sage Place,Manchester,NH,3105
454,Nichols,Oxborough,4/3/93,40824 Logan Parkway,Newton,MA,2162
455,Nikkie,Smithend,2/4/80,5340 Union Point,Cambridge,MA,2142
456,Baldwin,Cossey,9/1/76,2197 Bowman Center,Boston,MA,2283
457,Sarge,Deetch,5/31/88,3249 Lakeland Trail,Worcester,MA,1605
458,Henrik,Pettersen,12/28/84,9019 Holmberg Park,Woburn,MA,1813
459,Rodie,Kenney,1/19/71,7935 Bartillon Street,Newton,MA,2458
460,Barbabas,McCarry,3/22/17,7414 Straubel Court,Woburn,MA,1813
461,Quentin,Ende,4/3/96,0995 Sachs Street,Brockton,MA,2305
462,Cacilia,L'Episcopi,3/19/82,51 Pankratz Street,Lynn,MA,1905
463,Spense,Balf,1/31/09,265 Vermont Parkway,Boston,MA,2203
464,Godart,Andrews,12/21/62,6 Truax Street,Boston,MA,2163
465,Doy,Reveley,8/4/87,23 Veith Crossing,Boston,MA,2114
466,Elli,Oneil,8/25/94,510 Melody Terrace,Boston,MA,2124
467,Brittan,Haggidon,1/27/13,85 Ronald Regan Place,Manchester,NH,3105
468,Noak,Riepel,6/22/01,58 Mosinee Center,Worcester,MA,1610
469,Amalle,Mariotte,10/20/76,47 Cascade Terrace,New Bedford,MA,2745
470,Isis,Etty,10/5/67,01914 Talisman Way,Worcester,MA,1610
471,Clary,Scotchmore,8/31/89,907 Talmadge Point,Boston,MA,2124
472,Zechariah,Shiril,3/19/82,9678 Hazelcrest Lane,Boston,MA,2119
473,Stavro,Margrett,6/6/89,8 Vahlen Crossing,Portsmouth,NH,3804
474,Michel,Vedmore,11/18/01,1208 Harper Place,Worcester,MA,1605
475,Claudetta,Van den Bosch,8/26/74,13 Cherokee Junction,Newton,MA,2162
476,Lemmy,Chatten,9/1/02,53 Luster Circle,Springfield,MA,1114
477,Rick,Le Huquet,7/16/62,9 Lakewood Gardens Hill,Portsmouth,NH,214
478,Flossi,Ommanney,7/6/85,485 Maple Avenue,Manchester,NH,3105
479,Elmo,Goodwill,1/18/16,49580 Oak Valley Court,Woburn,MA,1813
480,Helenelizabeth,Duignan,6/10/99,621 Buhler Parkway,New Bedford,MA,2745
481,Casi,Burgoin,7/15/72,1923 Loomis Lane,Portsmouth,NH,214
482,Jodi,Keasy,5/25/02,8 Katie Point,Woburn,MA,1813
483,Aveline,Bugdall,8/19/67,38878 Kingsford Pass,Boston,MA,2216
484,Husein,Heenan,12/14/16,8 Hoepker Parkway,Newton,MA,2162
485,Garwin,Scotson,9/19/65,649 Brentwood Street,Boston,MA,2114
486,Agnese,Counter,4/15/65,987 American Ash Lane,Boston,MA,2124
487,Marilin,Croce,8/6/87,0486 Moose Point,New Bedford,MA,2745
488,Myriam,Andree,8/20/81,05664 Alpine Lane,Worcester,MA,1654
489,Johanna,Capron,5/21/07,2666 Montana Drive,Boston,MA,2109
490,Danyelle,Sanz,6/13/75,6 Judy Alley,Cambridge,MA,2142
491,Cecelia,Grumley,5/16/74,8612 Schiller Road,Newton,MA,2458
492,Esmeralda,Showen,9/10/14,8664 Jenna Hill,Boston,MA,2208
493,Leoline,Mohamed,5/17/86,4055 Golf Course Terrace,Manchester,NH,3105
494,Carine,Buddles,6/21/80,886 3rd Hill,Newton,MA,2162
495,Tobiah,Linkin,11/17/74,1 Sunbrook Hill,Boston,MA,2119
496,Beale,Dryburgh,5/21/86,4 Linden Avenue,Boston,MA,2119
497,Jeanette,Caswell,11/23/81,3 Pearson Center,Woburn,MA,1813
498,Vidovik,MacLaren,12/13/17,004 Hooker Junction,Brockton,MA,2405
499,Arlyne,Butterfint,12/5/68,888 Lyons Crossing,Manchester,NH,3105
500,Eduardo,Heaton,11/19/11,7 Marcy Alley,Brockton,MA,2305
501,Michelina,Dwine,1/13/62,43 Jana Circle,Springfield,MA,1114
502,Sella,Sans,3/9/09,78 Sherman Circle,New Bedford,MA,2745
503,Allyson,Raulston,4/27/72,4311 Dottie Junction,Boston,MA,2208
504,Barb,Hutchings,10/21/80,7881 Anthes Drive,Boston,MA,2163
505,Hank,Freckelton,12/6/92,42 Bayside Lane,Worcester,MA,1654
506,Marv,Benck,8/7/68,33 Columbus Point,Worcester,MA,1605
507,Lynn,Canton,8/10/17,7 Farwell Way,Springfield,MA,1114
508,Bealle,Gladbach,7/20/95,248 Browning Park,Watertown,MA,2472
509,Ronica,Betty,8/12/92,95 Grover Drive,Portsmouth,NH,3804
510,Hervey,Massen,9/26/11,1 Fordem Alley,Springfield,MA,1129
511,Corrine,Ladbrook,7/26/16,315 Crowley Street,Brockton,MA,2405
512,Rana,Dadge,9/24/11,4 Dennis Hill,New Bedford,MA,2745
513,Clem,Misken,5/29/12,53 Morrow Street,Waltham,MA,2453
514,Katalin,Hubner,10/17/87,311 Sauthoff Circle,Newton,MA,2458
515,Christian,Ferrillio,11/9/06,37 Wayridge Plaza,Springfield,MA,1105
516,Gilligan,Philpin,9/26/71,4314 Clove Alley,Woburn,MA,1813
517,Merrill,Hambrick,12/18/80,4 Del Mar Lane,Boston,MA,2163
518,Maryanne,Frane,11/25/65,06 Village Way,Boston,MA,2114
519,Nikola,Leyzell,5/17/13,4 Di Loreto Court,Worcester,MA,1610
520,Deane,Gillfillan,5/10/04,521 Oak Point,Springfield,MA,1114
521,Thain,Rief,10/3/88,87 Dennis Way,Worcester,MA,1610
522,Jacquelyn,Sutterfield,10/18/63,35028 Melody Junction,Springfield,MA,1114
523,Philippine,Hairon,6/10/01,15 3rd Junction,Worcester,MA,1654
524,Maribelle,Denekamp,1/15/97,6567 Morningstar Parkway,Springfield,MA,1129
525,Katrine,Panner,4/10/83,172 Little Fleur Trail,Boston,MA,2283
526,Marie-ann,Tatford,2/17/15,5 Killdeer Lane,Boston,MA,2208
527,Laney,Audenis,10/29/15,1680 Moulton Parkway,Boston,MA,2119
528,Chrotoem,Caccavari,2/19/69,8 Daystar Trail,Springfield,MA,1129
529,Patten,Whitwham,7/3/88,9 Mallard Avenue,Boston,MA,2114
530,Kalli,Deverall,2/14/61,7389 Colorado Hill,Boston,MA,2283
531,Launce,Hearty,5/18/93,1 Susan Center,Worcester,MA,1605
532,Wilie,Denisovich,6/18/02,02029 Bashford Street,Springfield,MA,1114
533,Mikey,Scotchbourouge,4/30/96,6 Everett Pass,Boston,MA,2208
534,Robinetta,Eble,7/15/02,347 Forster Point,Woburn,MA,1813
535,Sharon,Davson,5/18/81,1903 Del Mar Terrace,Boston,MA,2104
536,Stephanie,McAlees,4/1/80,65 Alpine Parkway,New Bedford,MA,2745
537,Katrine,Espinel,3/6/18,4503 Victoria Circle,Worcester,MA,1605
538,Viole,Morlon,9/7/77,522 Monica Parkway,Worcester,MA,1605
539,Vergil,McVey,2/25/15,670 Grim Crossing,Boston,MA,2104
540,Pearla,Revington,11/27/88,35 Holmberg Hill,Manchester,NH,3105
541,Ursulina,Cleverley,3/15/81,86935 Shasta Center,Manchester,NH,3105
542,Murray,Greaser,2/15/71,8217 Ridgeway Road,Brockton,MA,2405
543,Melisandra,Edmonston,4/8/02,825 Fair Oaks Road,Brockton,MA,2405
544,Glad,Hoofe,12/28/75,3920 Blue Bill Park Junction,Worcester,MA,1654
545,Aurel,Bathurst,8/28/10,57 Hovde Court,Boston,MA,2104
546,Orella,Sterte,6/5/16,4 Loeprich Hill,Boston,MA,2119
547,Graeme,Touson,12/23/08,82620 Stephen Trail,Boston,MA,2119
548,Clemence,Bowlesworth,8/8/80,1 Marquette Road,Brockton,MA,2305
549,Nefen,Leglise,7/27/06,9144 8th Parkway,Springfield,MA,1105
550,Ted,Hellyer,6/16/07,0787 Dennis Court,Springfield,MA,1129
551,Delainey,Batrop,1/30/98,20063 Lerdahl Hill,Boston,MA,2119
552,Gaston,Telega,6/26/81,29182 Macpherson Parkway,Worcester,MA,1654
553,Kerby,Gadault,12/17/81,06379 Arrowood Road,Springfield,MA,1105
554,Martha,Turland,9/7/98,9 Blackbird Trail,Worcester,MA,1605
555,Wolf,Neem,6/4/01,1 Sugar Drive,Portsmouth,NH,3804
556,Redd,McNeachtain,12/13/66,5 Saint Paul Circle,Watertown,MA,2472
557,Larissa,Burkinshaw,5/27/09,862 Anderson Court,Springfield,MA,1152
558,Eva,McPartling,9/15/08,3429 Eastwood Avenue,Boston,MA,2203
559,Erv,Aishford,3/30/13,67542 Holy Cross Junction,Brockton,MA,2405
560,Shep,De Hooch,2/22/62,55770 Vermont Crossing,Brockton,MA,2305
561,Jenelle,Boadby,7/15/97,268 Bobwhite Avenue,Boston,MA,2104
562,Lola,Geer,10/12/15,73253 Packers Avenue,Waltham,MA,2453
563,Drucie,Gonnel,6/29/68,51687 Walton Center,Springfield,MA,1105
564,Veronique,Plowell,10/10/05,8748 Montana Avenue,Boston,MA,2203
565,Rosella,Gallanders,12/6/74,055 Forest Run Avenue,Boston,MA,2109
566,Jannel,St. Aubyn,10/8/70,779 Oneill Way,Portsmouth,NH,214
567,Joanne,Barhems,7/17/98,857 Center Way,Worcester,MA,1610
568,Gelya,Trounce,12/18/15,3 Miller Trail,Brockton,MA,2405
569,Shawnee,Havvock,10/23/94,3 Oxford Parkway,Waltham,MA,2453
570,Stanislas,Nanninini,4/30/69,09 Dawn Court,Portsmouth,NH,3804
571,Coral,Grishelyov,9/21/62,17 Barnett Circle,Brockton,MA,2405
572,Powell,Duchan,2/12/94,5 Boyd Avenue,Boston,MA,2109
573,Dora,Gircke,7/19/93,89 Hooker Alley,Boston,MA,2163
574,Joey,Burdas,10/7/79,9 Sutteridge Court,Brockton,MA,2405
575,Mariya,Wittleton,1/26/80,75027 Cherokee Road,Portsmouth,NH,214
576,Loralyn,Sidaway,2/1/14,47 Canary Street,Worcester,MA,1605
577,Codie,Hawson,8/7/03,4 Gulseth Crossing,Boston,MA,2208
578,Amandi,Eloi,2/6/78,41 Quincy Park,Boston,MA,2124
579,Christian,Sinnat,10/11/93,04 Meadow Vale Alley,Springfield,MA,1152
580,Jemie,Wrefford,11/12/97,136 Nelson Alley,Springfield,MA,1152
581,Stacia,Daish,9/16/86,00 Starling Hill,Lynn,MA,1905
582,Darryl,Abba,8/23/78,74 Valley Edge Parkway,New Bedford,MA,2745
583,Titus,Ghost,3/6/77,53 Sherman Hill,Springfield,MA,1129
584,Rosabelle,Andreix,2/1/78,081 Forest Alley,Springfield,MA,1114
585,Beverlie,Fitzjohn,3/20/85,1 Gale Point,Lynn,MA,1905
586,Nessy,Cowpe,2/14/14,9 Cambridge Lane,Newton,MA,2162
587,Cordie,Bragginton,4/21/85,15 Sutteridge Circle,Boston,MA,2298
588,Lenna,Josifovitz,3/1/92,9 Randy Trail,Portsmouth,NH,3804
589,Rolando,Binney,12/31/81,21 Hoard Drive,Boston,MA,2114
590,Tedda,Dawtry,7/5/61,796 Orin Parkway,Boston,MA,2124
591,Roseanna,Freschi,10/27/10,89321 Hansons Lane,New Bedford,MA,2745
592,Gray,Rodenburg,11/19/08,99719 Oak Valley Crossing,Portsmouth,NH,3804
593,Sandor,Rosenfelt,9/7/67,66046 Banding Circle,Boston,MA,2124
594,Tedi,Risby,11/27/88,53813 Hoepker Alley,Portsmouth,NH,214
595,Cherye,Wooller,10/17/01,576 Graceland Plaza,Worcester,MA,1654
596,Lavina,McNysche,2/11/77,890 Waywood Terrace,Boston,MA,2216
597,Helaina,Simmings,2/12/79,53319 Eastwood Pass,Woburn,MA,1813
598,Ines,Akerman,10/7/19,8 Park Meadow Center,Boston,MA,2119
599,Dickie,Buckney,4/22/14,86366 Swallow Court,Lynn,MA,1905
600,Maddi,Ajam,10/12/78,735 Johnson Alley,Waltham,MA,2453
601,Ulrika,Belison,1/1/66,6 Coolidge Road,Boston,MA,2283
602,Edgar,Matussov,4/19/99,26257 Granby Parkway,Boston,MA,2216
603,Kathe,Radleigh,5/11/09,70 Northland Junction,Boston,MA,2216
604,Patrice,Withinshaw,7/31/65,42210 Hermina Parkway,Springfield,MA,1114
605,Niven,Begin,10/16/60,0 Bobwhite Street,Cambridge,MA,2142
606,Kary,Meachan,4/18/85,16652 Butternut Crossing,Portsmouth,NH,3804
607,Clay,Abrahm,12/13/60,847 Farragut Way,Springfield,MA,1152
608,Dori,Pepperrall,7/15/81,38 Anthes Alley,Woburn,MA,1813
609,Delphinia,Wudeland,12/22/18,25162 8th Avenue,Boston,MA,2124
610,Maggy,Beaby,11/6/18,58069 Westridge Trail,Boston,MA,2216
611,Sharon,Beckinsall,8/1/92,34332 Starling Hill,Boston,MA,2298
612,Kathy,Piniur,6/20/72,46 Memorial Plaza,Boston,MA,2104
613,Norton,Schaumaker,1/28/69,61965 Vera Plaza,Portsmouth,NH,214
614,Alva,Basindale,9/5/20,958 Dottie Pass,Worcester,MA,1605
615,Jasen,MacNally,11/13/02,7205 Michigan Court,Newton,MA,2458
616,Collen,Carty,6/12/80,58450 Division Crossing,Springfield,MA,1105
617,Brittan,Rait,12/16/71,775 Alpine Circle,Boston,MA,2114
618,Hilton,Jumont,8/11/63,1 Anniversary Hill,Boston,MA,2119
619,Gracia,Ochterlonie,9/2/00,82679 Cambridge Pass,Boston,MA,2104
620,Davey,Ortsmann,12/7/04,81620 Twin Pines Crossing,Worcester,MA,1605
621,Abbie,Slyne,4/26/73,7 Packers Court,Brockton,MA,2305
622,Gwen,Joontjes,11/30/77,5856 Harbort Drive,Boston,MA,2216
623,Marin,Sumption,4/11/64,55364 Bellgrove Junction,Worcester,MA,1654
624,Keslie,Gypps,2/7/79,4 Ludington Avenue,Boston,MA,2109
625,Gustavus,Stitson,1/17/82,311 Paget Crossing,Manchester,NH,3105
626,Mercedes,Nottingam,4/11/84,309 Lindbergh Parkway,Watertown,MA,2472
627,Lenna,Damrell,11/13/77,9 Hovde Plaza,Woburn,MA,1813
628,Joe,Lukasik,7/16/63,9 Pine View Way,New Bedford,MA,2745
629,Emelyne,Kolin,6/25/04,164 Knutson Court,Boston,MA,2114
630,Aloisia,Smooth,3/23/08,126 Kedzie Lane,Boston,MA,2104
631,Stearn,Mcsarry,9/13/19,4 Hintze Road,Waltham,MA,2453
632,Kristal,Bottelstone,1/24/61,41 Del Sol Park,New Bedford,MA,2745
633,Judd,Habberjam,4/22/20,74 Reinke Drive,Boston,MA,2298
634,Lloyd,Olle,10/29/70,62744 Canary Way,Watertown,MA,2472
635,Claire,Beeho,5/18/68,4 Milwaukee Center,Worcester,MA,1605
636,Kinnie,Correa,11/14/96,09 Arapahoe Hill,Springfield,MA,1105
637,Israel,Franses,1/4/01,295 Algoma Place,Boston,MA,2283
638,Donny,Friedlos,3/29/18,8454 Annamark Place,Boston,MA,2283
639,Willie,Ugolotti,3/22/03,56 Mosinee Road,Newton,MA,2458
640,Alick,Aleixo,2/21/11,42 Carioca Avenue,Newton,MA,2458
641,Gretta,Jull,2/14/60,23 Grasskamp Center,Lynn,MA,1905
642,Trixy,Fort,9/21/74,03611 Thierer Junction,Springfield,MA,1152
643,Shanda,Allix,4/25/63,71 Brown Court,Portsmouth,NH,214
644,Lyndy,Auchterlony,6/6/90,42 Tennessee Crossing,Watertown,MA,2472
645,Janice,Fernely,10/13/83,45 Goodland Junction,Springfield,MA,1129
646,Lucien,Beagles,9/28/85,834 Anhalt Lane,Boston,MA,2163
647,Wallie,Maybey,10/31/18,2 Forster Alley,Brockton,MA,2305
648,Samara,Menere,9/20/06,83 Milwaukee Pass,Boston,MA,2119
649,Lancelot,Dober,1/22/12,9172 Saint Paul Alley,Boston,MA,2283
650,Hillery,Lucy,5/23/09,0 Toban Park,Boston,MA,2163
651,Melody,Silkston,1/3/62,8280 Barnett Court,Springfield,MA,1105
652,Cassi,Lincoln,5/14/19,3 Straubel Circle,Boston,MA,2298
653,Marne,Kaplan,7/31/09,0 Monterey Lane,Manchester,NH,3105
654,Willabella,D'Orsay,9/20/77,70 Carey Center,New Bedford,MA,2745
655,Nikolaos,Ocklin,1/18/04,844 Amoth Way,Waltham,MA,2453
656,Darrell,Mullan,6/28/01,658 Judy Trail,Boston,MA,2203
657,Magnum,Caiger,9/11/61,81679 Paget Place,Cambridge,MA,2142
658,Jacqueline,Jayume,6/11/15,8430 Walton Drive,Newton,MA,2458
659,Corney,McLenahan,1/11/97,434 Raven Drive,Watertown,MA,2472
660,Mellie,Skirvin,11/26/74,26 Burning Wood Drive,Newton,MA,2162
661,Tasia,Peeke-Vout,4/10/95,053 Di Loreto Lane,Portsmouth,NH,214
662,Marsiella,Shortin,6/23/04,9 Hansons Point,Manchester,NH,3105
663,Edith,Sikora,4/10/98,55826 Rockefeller Way,Brockton,MA,2405
664,Esther,Kellett,8/18/94,0297 Dottie Terrace,Boston,MA,2104
665,Gran,Grigson,10/8/15,24178 Holy Cross Alley,New Bedford,MA,2745
666,Megen,MacDougall,8/16/81,9 Coolidge Terrace,Lynn,MA,1905
667,Moishe,Gavrieli,7/30/72,20294 Independence Lane,Brockton,MA,2305
668,Ulberto,Syme,11/5/76,091 Monument Junction,Springfield,MA,1129
669,Holly-anne,Huebner,3/8/85,4 Farragut Trail,Newton,MA,2458
670,Mallissa,Key,8/23/67,567 Dottie Street,Boston,MA,2283
671,Joan,Osselton,3/15/89,5854 Towne Point,New Bedford,MA,2745
672,Olive,Mariyushkin,2/20/60,3812 Declaration Drive,Portsmouth,NH,3804
673,Arlen,Cadore,2/28/05,47 Norway Maple Hill,Springfield,MA,1129
674,Lianne,Sprade,6/4/99,8 Anzinger Avenue,Worcester,MA,1610
675,Stephie,Pudner,10/12/95,416 Amoth Plaza,Brockton,MA,2405
676,Moise,Kaaskooper,10/23/72,6135 Ramsey Parkway,Springfield,MA,1114
677,Eugen,Tukely,5/19/03,11 Fisk Avenue,Cambridge,MA,2142
678,Alec,Poplee,8/9/77,98369 Fremont Avenue,Boston,MA,2216
679,Kattie,Mulchrone,11/27/79,8466 Warbler Plaza,Springfield,MA,1105
680,Dulcia,Rubinsky,12/19/69,65 Fair Oaks Crossing,Portsmouth,NH,214
681,Roderic,MacAvaddy,1/15/76,10 International Alley,Worcester,MA,1654
682,Dorisa,MacNockater,7/16/99,29692 Karstens Drive,Boston,MA,2283
683,Greg,MacHoste,1/22/10,77 Lighthouse Bay Street,Boston,MA,2216
684,Prudence,Kermon,3/19/97,41 Huxley Pass,Cambridge,MA,2142
685,Jocko,Skinn,1/7/73,4103 Summer Ridge Parkway,Boston,MA,2124
686,Ceciley,Newband,6/9/01,7629 Sachtjen Street,Boston,MA,2109
687,Thorn,Cowlin,10/25/03,6382 Walton Terrace,Springfield,MA,1129
688,Rochelle,Auchterlonie,3/4/67,9011 Montana Alley,Portsmouth,NH,3804
689,Paulette,Marris,5/17/90,4 Bluestem Place,Boston,MA,2203
690,Pen,Owen,1/1/07,72773 Stone Corner Road,Waltham,MA,2453
691,Kilian,Canero,3/11/77,1 Cherokee Circle,Woburn,MA,1813
692,Dori,Kemer,4/21/65,890 Northland Crossing,Cambridge,MA,2142
693,Cristen,Geaves,12/6/70,0745 Gateway Street,Boston,MA,2208
694,Chanda,Turnock,2/25/82,30 Eastwood Trail,Woburn,MA,1813
695,Rene,Drogan,5/24/70,24102 Barnett Court,Boston,MA,2124
696,Rod,MacMakin,2/5/75,336 Mockingbird Place,Springfield,MA,1105
697,Maitilde,Thurling,11/20/98,876 Lillian Junction,Boston,MA,2208
698,Leanor,Etter,11/18/99,1847 6th Junction,Springfield,MA,1114
699,Torrance,Taffee,6/9/89,88 Grim Park,Boston,MA,2109
700,Clyve,Kirlin,9/14/08,681 Pearson Plaza,Boston,MA,2203
701,Josh,Urion,5/18/15,24 Sullivan Plaza,Worcester,MA,1610
702,Ahmad,Cullon,11/13/08,92 Hooker Place,Watertown,MA,2472
703,Saundra,Hedin,9/1/06,45567 Old Shore Court,Woburn,MA,1813
704,Bennie,Orbell,7/10/97,94746 Hallows Parkway,Waltham,MA,2453
705,Fonsie,Casazza,9/24/89,0 Bartelt Terrace,Brockton,MA,2305
706,Gaynor,Olivi,3/14/71,99 Novick Hill,Boston,MA,2298
707,Abbye,Fearnall,2/11/74,54194 Nobel Crossing,Boston,MA,2283
708,Charline,Feast,4/28/13,4621 South Road,Brockton,MA,2405
709,Caro,Jakoubec,2/8/89,1576 Lotheville Point,Brockton,MA,2305
710,Laird,Redgrove,3/30/82,957 Fordem Street,Springfield,MA,1152
711,Gilberta,Purdom,2/19/63,1529 Sugar Terrace,Newton,MA,2162
712,Ediva,Horburgh,12/20/96,8914 Brickson Park Place,Springfield,MA,1152
713,Diann,Hrinchishin,7/3/03,74 Beilfuss Avenue,Brockton,MA,2405
714,Bunni,Witherup,1/9/89,5871 Schmedeman Parkway,Boston,MA,2104
715,Rory,Catherall,3/10/90,154 4th Crossing,Boston,MA,2114
716,Taylor,Macveigh,9/25/86,32 Pankratz Place,Newton,MA,2458
717,Binnie,Janeway,8/14/71,120 Alpine Pass,Watertown,MA,2472
718,Sileas,Fudge,2/8/64,160 Sherman Street,Worcester,MA,1654
719,Stu,Seargeant,6/16/84,2 Shelley Center,Brockton,MA,2305
720,Albina,Simonetto,6/28/04,7 Rutledge Parkway,Springfield,MA,1114
721,Ferd,McEntee,11/26/81,6 Main Court,Brockton,MA,2405
722,Harwell,Doe,7/24/86,9 Sutteridge Park,Springfield,MA,1114
723,Drucy,Cadwell,2/12/06,2366 Sutteridge Parkway,Boston,MA,2216
724,Prudi,Ballister,11/8/98,0 Elmside Park,Worcester,MA,1654
725,Genovera,Burdett,3/28/19,816 Merry Drive,Springfield,MA,1105
726,Amandie,O'Dowd,5/26/86,6 Spenser Road,Worcester,MA,1610
727,Gerladina,Lamborne,1/17/79,34 Holmberg Circle,Waltham,MA,2453
728,Danna,Stocks,4/6/12,0 Ridge Oak Alley,Springfield,MA,1105
729,Gualterio,Leaburn,3/7/86,6090 Lotheville Road,New Bedford,MA,2745
730,Toni,Loker,6/23/85,592 Scoville Street,Boston,MA,2119
731,Luigi,Keele,1/3/17,2 Jenifer Center,Boston,MA,2298
732,Josh,Rate,3/21/97,3229 Grasskamp Hill,Worcester,MA,1654
733,Sutherland,Lidgey,2/21/86,8 Forest Plaza,Springfield,MA,1105
734,Felipe,Grigorini,8/19/62,55 Morningstar Point,Boston,MA,2216
735,Brendin,Rothchild,11/25/06,233 Graedel Avenue,Woburn,MA,1813
736,Bartolemo,Jeavons,10/11/96,3319 Oak Valley Parkway,Boston,MA,2203
737,Gerry,Noice,1/31/89,5 Tennessee Terrace,Boston,MA,2203
738,Tanny,Wynett,1/31/88,2618 Montana Park,Springfield,MA,1105
739,Dinnie,Stroban,12/17/81,06 Gulseth Drive,Boston,MA,2298
740,Carmen,Borrow,6/25/68,3537 Longview Terrace,Springfield,MA,1114
741,Obadias,Stamper,11/7/61,74 Hoffman Plaza,Lynn,MA,1905
742,Susy,Petrashkov,4/21/67,08009 Hoffman Park,Portsmouth,NH,214
743,Christye,Cammis,1/3/84,50 Merchant Way,Boston,MA,2283
744,Agretha,Farncomb,4/23/82,9713 Coolidge Avenue,Boston,MA,2114
745,Verile,Lortzing,5/27/09,55 La Follette Terrace,Boston,MA,2104
746,Darrel,Fickling,5/30/71,489 Fairfield Lane,Worcester,MA,1654
747,Fredia,Vasilchenko,8/24/97,0 Paget Drive,Cambridge,MA,2142
748,Prudence,Westfield,5/2/99,990 Lerdahl Pass,Boston,MA,2109
749,Jennica,Soppitt,5/3/87,92265 Warrior Drive,Manchester,NH,3105
750,Laurella,Bantham,1/10/80,79853 Starling Court,Boston,MA,2283
751,Melloney,Chadburn,11/20/70,1472 Sugar Avenue,Springfield,MA,1114
752,Eduino,Crang,11/11/03,39129 Truax Point,Boston,MA,2216
753,Nicolette,Theuff,9/8/78,6 Armistice Plaza,Waltham,MA,2453
754,Graehme,Stroban,11/10/15,033 Westerfield Park,Boston,MA,2119
755,Gabriellia,Glanester,11/24/81,3 John Wall Crossing,Boston,MA,2298
756,Emmalynne,Cours,5/19/94,4586 Homewood Center,Worcester,MA,1610
757,Giff,Winckles,10/14/99,32135 Dwight Plaza,Worcester,MA,1610
758,Maggie,Wrate,7/18/02,12 Delladonna Center,Cambridge,MA,2142
759,Saunderson,Diack,10/15/07,4 4th Hill,Brockton,MA,2305
760,Rochelle,Wealleans,6/21/72,0831 Nevada Hill,Springfield,MA,1105
761,Joelly,Goodrick,6/2/86,8 Harbort Terrace,New Bedford,MA,2745
762,Ivonne,Stenhouse,1/20/91,9 Hooker Park,Waltham,MA,2453
763,Deena,Polin,1/5/14,1 Stang Street,Springfield,MA,1152
764,Shadow,Bursell,10/3/92,5291 Monument Point,Springfield,MA,1105
765,Dyanna,Goodliff,11/7/90,9644 Surrey Avenue,Boston,MA,2119
766,Lisetta,Dacks,11/11/79,899 Lyons Court,Newton,MA,2458
767,Olivero,Izzat,10/15/67,166 Fairview Crossing,Boston,MA,2124
768,Odo,Cushworth,3/26/61,4 Oxford Drive,Springfield,MA,1105
769,Renae,Hamel,3/16/20,66383 Killdeer Road,Boston,MA,2298
770,Joli,Goodbourn,6/15/83,8 Raven Point,Newton,MA,2458
771,Lulu,Stratten,2/19/03,0 Myrtle Way,Worcester,MA,1654
772,Marcello,Folcarelli,11/28/02,3 Becker Center,Boston,MA,2109
773,Fallon,Bandiera,10/15/93,75 Chive Plaza,Springfield,MA,1129
774,Rustie,Shepherd,9/3/00,5 Comanche Parkway,Boston,MA,2124
775,Blake,Tonn,1/2/95,9 Butternut Pass,Worcester,MA,1654
776,Westleigh,Fernant,3/31/60,43 Laurel Place,Boston,MA,2124
777,Kaitlynn,Broadey,3/16/63,2 Becker Way,Boston,MA,2216
778,Chauncey,Pennycord,5/7/16,328 Sundown Lane,Boston,MA,2203
779,Valentine,Czajkowska,1/2/82,44477 Pennsylvania Circle,Boston,MA,2283
780,Hillie,Castanos,4/2/66,7 Hazelcrest Hill,Lynn,MA,1905
781,Damian,Poynter,11/27/71,37744 Warner Crossing,Worcester,MA,1610
782,Lucilia,Dunk,11/20/03,170 Oak Road,Springfield,MA,1105
783,Hermina,Elland,3/26/18,958 Scott Circle,Boston,MA,2298
784,Symon,Fontell,9/5/14,77 Loeprich Parkway,Springfield,MA,1152
785,Krystle,Goggin,7/30/20,9 Crescent Oaks Trail,Boston,MA,2216
786,Irita,Rawlingson,12/2/70,75038 Pleasure Point,Boston,MA,2283
787,Petr,Rape,12/10/84,2724 Waubesa Point,Waltham,MA,2453
788,Alida,Brilon,12/31/17,25 Village Green Alley,Boston,MA,2203
789,Marcus,Postgate,12/3/21,040 Namekagon Way,Worcester,MA,1610
790,Brianna,Challender,2/14/66,9691 Charing Cross Center,Boston,MA,2298
791,Felix,Meake,8/5/72,12 Center Pass,Boston,MA,2124
792,Hattie,Dufore,7/8/06,92118 Rutledge Circle,Waltham,MA,2453
793,Clayborne,Stothard,7/3/99,9 Fordem Alley,Boston,MA,2119
794,Ajay,Goodridge,6/21/80,6 Carey Plaza,Worcester,MA,1654
795,Wilmette,Betteriss,11/10/76,93 Thackeray Circle,Springfield,MA,1152
796,Dorthy,Margerison,4/18/61,197 Hallows Street,Waltham,MA,2453
797,Ricard,Tregido,6/1/13,10 Gateway Place,Newton,MA,2458
798,Vivienne,Breckell,6/27/69,97674 Mitchell Circle,Brockton,MA,2305
799,Lorri,Beeken,6/2/82,90368 Lunder Way,Portsmouth,NH,214
800,Rhianna,Zammett,10/7/15,1 Sugar Trail,Springfield,MA,1105
801,Stanwood,Mafham,12/4/92,28 Graceland Point,Portsmouth,NH,214
802,Dorolisa,Jacobovitch,12/14/91,0139 Kipling Pass,Worcester,MA,1610
803,Clarabelle,Fiander,8/3/87,475 Gateway Road,Boston,MA,2163
804,Sayers,Dillinton,4/16/88,80 3rd Circle,Manchester,NH,3105
805,Xaviera,Chawner,5/1/17,5 Roxbury Center,Boston,MA,2298
806,Drusy,Tilby,8/8/60,22497 Vera Drive,Boston,MA,2203
807,Jany,Jon,1/23/65,5 Londonderry Street,Worcester,MA,1605
808,Roderic,Margett,5/24/70,964 Hauk Lane,Worcester,MA,1610
809,Tiphanie,Dachey,1/4/79,403 Pankratz Court,Woburn,MA,1813
810,Alexa,Luxon,9/12/76,15 Butternut Park,Portsmouth,NH,3804
811,Corena,Couzens,1/7/84,845 Arizona Way,Boston,MA,2203
812,Batsheva,O'Hickee,3/13/80,7 Myrtle Pass,Springfield,MA,1114
813,Aldric,Spadoni,9/13/21,0 Lien Court,Portsmouth,NH,3804
814,Dolley,Doolan,12/28/11,16 Mcguire Terrace,Newton,MA,2162
815,Isabel,Shemming,8/27/84,42 Kennedy Parkway,Newton,MA,2458
816,Juieta,Wheadon,12/17/02,64496 Delaware Street,Newton,MA,2162
817,Frants,MacClay,8/14/68,0 Heath Alley,Newton,MA,2162
818,Cornelius,Mains,1/5/00,4281 Melody Trail,Waltham,MA,2453
819,Alexia,Rowbottam,10/18/89,600 Holy Cross Place,Portsmouth,NH,214
820,Guenevere,Brumble,2/2/83,97704 Shopko Center,Waltham,MA,2453
821,Amanda,Shute,5/13/05,3229 Morning Road,Boston,MA,2163
822,Kalil,Crowder,11/24/97,27758 Center Plaza,Watertown,MA,2472
823,Alonzo,Arkil,6/6/97,40 Cody Circle,Boston,MA,2119
824,Trumaine,Fippe,11/30/85,66326 Weeping Birch Parkway,Newton,MA,2458
825,Sergei,Gradwell,12/5/63,42 Artisan Trail,Worcester,MA,1605
826,Susan,Blaise,12/2/85,98637 Utah Drive,New Bedford,MA,2745
827,Theadora,Dyball,3/7/70,8 Moulton Park,Worcester,MA,1654
828,Atalanta,Lambourn,10/10/64,5104 Moose Park,Boston,MA,2124
829,Weider,Stiller,3/24/04,491 Oriole Crossing,Boston,MA,2109
830,Raf,Lavarack,8/14/18,7371 Superior Park,Boston,MA,2203
831,Corbet,Doag,6/27/03,521 Cambridge Circle,Boston,MA,2216
832,Emmey,Halfpenny,8/21/15,711 Blackbird Road,Springfield,MA,1129
833,Wilhelmina,Fermer,4/9/63,31 Vidon Way,Springfield,MA,1129
834,Gilles,Higginbottam,7/25/20,978 Waxwing Plaza,Boston,MA,2283
835,Pearl,Boggon,4/18/78,5 Carioca Alley,Boston,MA,2114
836,Raeann,Ponde,12/13/92,5080 Sauthoff Center,Boston,MA,2109
837,Zach,Ames,6/28/06,189 Brentwood Way,Worcester,MA,1610
838,Orelee,Scrivner,4/10/72,87584 Bluejay Place,Boston,MA,2163
839,Padraic,Mushett,3/18/62,9353 Pankratz Trail,New Bedford,MA,2745
840,Harv,Astridge,8/27/00,505 Columbus Center,Boston,MA,2203
841,Dannie,Yakovliv,8/12/10,790 Kim Junction,Manchester,NH,3105
842,Barri,Dusting,2/10/69,8772 Westerfield Road,Boston,MA,2208
843,Magdalene,Rowler,1/7/18,5 Stephen Center,Newton,MA,2458
844,Briant,Adds,6/21/03,1 Sherman Alley,Boston,MA,2216
845,Joceline,MacAvddy,8/8/19,49201 Monica Parkway,Boston,MA,2114
846,Earle,Hodgon,3/31/65,66 Armistice Park,Worcester,MA,1654
847,Wallie,Loseke,9/30/15,76 Thackeray Avenue,Watertown,MA,2472
848,Stern,Orritt,12/12/17,70 Meadow Vale Alley,Brockton,MA,2405
849,Ottilie,Agg,12/16/11,03 Mockingbird Way,Worcester,MA,1654
850,Kristine,Sagrott,5/16/13,574 Green Ridge Center,Boston,MA,2109
851,Lulu,Johannes,10/5/60,81 Lotheville Parkway,Brockton,MA,2305
852,Lukas,Northill,1/27/96,522 Towne Lane,Boston,MA,2104
853,Kerstin,Clemits,7/25/07,02 Rigney Road,Boston,MA,2216
854,Willdon,Croisier,3/5/92,50110 8th Street,Boston,MA,2283
855,Megen,Maggorini,2/15/79,3 Mitchell Crossing,Brockton,MA,2305
856,Rose,Ofener,6/8/18,81049 Upham Park,Boston,MA,2208
857,Mack,Lessmare,1/25/19,75883 Nevada Junction,Springfield,MA,1114
858,Susanna,Dulen,6/12/64,10 Summer Ridge Alley,Brockton,MA,2305
859,Ward,Jaray,2/26/91,0921 Dahle Alley,Boston,MA,2298
860,Bree,Father,12/25/62,996 Dixon Point,Brockton,MA,2405
861,Horacio,Longbottom,11/21/15,05199 3rd Pass,Portsmouth,NH,3804
862,Karel,Flucker,2/4/69,4459 Boyd Avenue,Brockton,MA,2305
863,Thorndike,Sare,2/2/73,96 Continental Hill,Newton,MA,2458
864,Davide,Janas,6/13/18,65466 Waubesa Pass,Brockton,MA,2305
865,Cissy,Danser,5/6/68,01133 Harper Pass,Worcester,MA,1610
866,Jolynn,Popeley,4/20/10,03714 Kim Pass,Brockton,MA,2305
867,Walther,Kondratyuk,12/29/73,74 Mcbride Trail,Portsmouth,NH,214
868,Durant,Guthrum,12/14/66,605 Dryden Way,Boston,MA,2208
869,Chris,Mariet,9/21/04,628 Summit Point,Worcester,MA,1610
870,Brendan,Dunkley,1/8/86,8 Helena Way,Worcester,MA,1605
871,Eolande,Paolozzi,6/29/17,3 Bellgrove Junction,Springfield,MA,1129
872,Amery,Kimblen,11/24/07,63197 North Parkway,Boston,MA,2124
873,Carri,Woodcock,7/12/89,985 Grayhawk Drive,Worcester,MA,1610
874,Nara,Pearson,11/30/86,62810 Nova Hill,New Bedford,MA,2745
875,Martita,Dunckley,6/11/81,76 Golf Trail,Worcester,MA,1654
876,Rebecca,Ballefant,10/24/77,981 Dakota Drive,Brockton,MA,2405
877,Cordey,Zucker,12/18/96,936 John Wall Way,Boston,MA,2203
878,Candice,Havard,11/4/77,57072 Melvin Plaza,Boston,MA,2163
879,Truman,Klass,9/25/64,434 2nd Road,Waltham,MA,2453
880,Sabra,Glowacha,6/28/63,500 Stoughton Junction,Boston,MA,2124
881,Karalee,Mungane,11/7/92,03922 Oxford Road,Boston,MA,2298
882,Petr,Cowle,9/21/73,58605 Tomscot Park,Portsmouth,NH,3804
883,Nanni,Kiloh,5/23/72,16 Autumn Leaf Terrace,Cambridge,MA,2142
884,Ailey,Muddiman,6/22/20,5 Cordelia Plaza,Portsmouth,NH,3804
885,Hendrik,Ferreras,7/30/13,6920 Transport Circle,Newton,MA,2458
886,Toinette,Crosi,8/1/61,8 New Castle Alley,Boston,MA,2208
887,Jarrod,Beldham,8/14/61,174 Cody Circle,Boston,MA,2216
888,Dorri,Rymill,7/1/70,65970 Loomis Street,Boston,MA,2298
889,Viole,Rothwell,10/3/01,4 Ridgeway Circle,Boston,MA,2114
890,Noble,Ivashintsov,10/14/08,0945 Merry Hill,Springfield,MA,1114
891,Isabel,Bonnier,5/27/19,1 Eastlawn Trail,Brockton,MA,2305
892,Ferdinande,Fishleigh,9/9/81,356 Linden Junction,Watertown,MA,2472
893,Henrik,Hatherill,9/18/80,1477 Harper Center,Boston,MA,2119
894,Lynea,Michell,8/24/97,89 Leroy Street,Boston,MA,2203
895,Carrissa,Botley,7/22/11,119 Rigney Terrace,Boston,MA,2298
896,Annabel,Plet,12/20/85,09 Clemons Park,Springfield,MA,1105
897,Gerri,Van Ross,4/27/10,8375 Gateway Lane,Watertown,MA,2472
898,Trey,Fardell,6/7/18,8 Hoffman Street,Woburn,MA,1813
899,Bud,Como,11/9/79,5350 Surrey Plaza,Springfield,MA,1105
900,Rhiamon,Strickett,10/30/03,2 Bluejay Drive,Boston,MA,2104
901,Johnath,Meadowcroft,10/26/19,714 Fulton Point,Worcester,MA,1605
902,Crysta,Scott,12/15/65,9 Novick Alley,Brockton,MA,2305
903,Bernard,Cearley,1/13/68,682 Old Shore Park,Springfield,MA,1105
904,Brear,Sanderson,8/25/82,244 Dayton Court,Boston,MA,2104
905,Lisabeth,Kinzett,1/31/81,27513 Steensland Center,Springfield,MA,1105
906,Etan,Northcott,5/22/60,7 Clove Terrace,Portsmouth,NH,214
907,Cody,MacFie,11/18/88,5 Hallows Drive,Portsmouth,NH,214
908,Winslow,Adnams,9/15/74,6333 Morningstar Lane,Worcester,MA,1610
909,Malory,Butten,10/11/20,3054 Sullivan Junction,Boston,MA,2109
910,Percy,Owtram,2/19/00,4 Park Meadow Plaza,Springfield,MA,1105
911,Bengt,Spowage,5/5/67,6878 Lake View Avenue,Boston,MA,2163
912,Elton,Maud,12/5/10,06 Loeprich Park,Boston,MA,2208
913,Margaret,Phillipson,1/14/05,036 Green Ridge Circle,Cambridge,MA,2142
914,Lucina,Gruszczak,7/10/66,71225 Lotheville Plaza,Worcester,MA,1654
915,Nigel,Shyres,11/12/87,58523 Randy Court,Newton,MA,2162
916,Olympie,Chaston,6/26/85,0250 Norway Maple Hill,Worcester,MA,1654
917,Hale,Caskey,3/20/66,58053 Steensland Lane,Worcester,MA,1654
918,Fletch,Martill,3/9/83,6 Burning Wood Crossing,Springfield,MA,1129
919,Brittne,McCathy,6/21/66,765 Tennyson Hill,Springfield,MA,1152
920,Barby,MacColm,10/17/87,8 Golden Leaf Crossing,Boston,MA,2163
921,Laurent,Lorey,9/26/18,0434 Katie Center,Newton,MA,2162
922,Ulrick,Evitt,12/20/62,68 Blackbird Circle,Worcester,MA,1610
923,Whitaker,Coomer,7/1/93,86246 Hayes Park,Boston,MA,2119
924,Sharona,Mertin,3/15/94,042 Hallows Plaza,Newton,MA,2458
925,Kenton,Buttrum,4/3/92,34903 Prentice Alley,Boston,MA,2104
926,Archer,Lillee,2/5/00,9 Ruskin Alley,Watertown,MA,2472
927,Arabelle,Wain,2/6/20,76 Leroy Court,Worcester,MA,1605
928,Lorant,Bennetto,3/30/16,9871 Dryden Street,Springfield,MA,1105
929,Rickard,Sloegrave,10/20/12,07202 Merry Terrace,Portsmouth,NH,214
930,Auria,Stairmond,10/19/65,9 Stone Corner Crossing,Brockton,MA,2405
931,Man,Matthews,11/12/06,0 Killdeer Way,Portsmouth,NH,3804
932,Drusi,Madle,4/29/81,12 Continental Street,Boston,MA,2298
933,Carny,Gulliver,10/18/70,54 Carpenter Park,Brockton,MA,2305
934,Maurita,Verrillo,7/10/86,7 Ridge Oak Place,Boston,MA,2208
935,Jorrie,De Lacey,9/9/17,75271 Warner Pass,Worcester,MA,1654
936,Vinny,Thatcham,5/4/00,93143 Summit Circle,Woburn,MA,1813
937,Augy,Marnane,6/25/90,0 La Follette Trail,Springfield,MA,1105
938,De witt,Geertje,2/15/93,9572 Farragut Pass,Boston,MA,2203
939,Archaimbaud,Avon,4/14/77,1 Clemons Lane,Waltham,MA,2453
940,Sallyanne,Stode,11/24/02,8 Hoepker Park,Watertown,MA,2472
941,Ronny,Ollander,10/31/11,28136 Eagle Crest Drive,Cambridge,MA,2142
942,Demetra,Trussman,1/17/96,411 Old Gate Road,Boston,MA,2298
943,Shantee,Oakman,11/14/77,3 Gale Lane,Boston,MA,2104
944,Dennie,Halladey,9/26/89,65436 Heath Place,Springfield,MA,1114
945,Sam,Clamo,8/17/74,7 Fuller Center,Newton,MA,2458
946,Launce,Bartaloni,11/24/00,416 Mockingbird Court,Springfield,MA,1152
947,Celina,Westrope,6/18/60,4 Arrowood Parkway,Manchester,NH,3105
948,Regen,Ledamun,1/14/15,16 Manley Terrace,Cambridge,MA,2142
949,Shandra,Neubigging,11/5/99,59609 Sommers Circle,Springfield,MA,1152
950,Corabella,Bowser,2/3/76,57724 Novick Circle,Woburn,MA,1813
951,Gene,Beneix,8/21/97,1224 Di Loreto Trail,Boston,MA,2163
952,Nanete,Tedder,11/9/21,812 Caliangt Avenue,Boston,MA,2203
953,Miquela,Thurlby,10/18/00,24 Alpine Terrace,Boston,MA,2109
954,Ezequiel,Holhouse,1/8/12,7432 Moose Circle,Boston,MA,2104
955,Colet,Mollatt,5/19/82,5 Derek Point,Boston,MA,2203
956,Ron,Esberger,4/20/09,73140 Caliangt Circle,Brockton,MA,2305
957,Pru,Beden,8/17/88,7747 Riverside Avenue,Boston,MA,2216
958,Shayla,Maydway,6/5/18,23872 Nova Road,Waltham,MA,2453
959,Antonella,Lettington,10/7/14,4712 Kim Alley,Boston,MA,2119
960,Gabbie,Damerell,2/9/81,370 Bartelt Point,Worcester,MA,1610
961,Dicky,Summerrell,8/24/82,71758 Morningstar Circle,Newton,MA,2458
962,Bastian,Gormley,8/24/60,83087 Independence Court,Boston,MA,2216
963,Kermie,Ramage,9/28/19,2300 Vidon Lane,Boston,MA,2119
964,Brannon,Scripps,1/22/87,775 Sauthoff Court,Newton,MA,2458
965,Gannie,Livezey,6/1/89,41 Hanson Hill,Brockton,MA,2305
966,Gustie,Penddreth,11/25/73,25328 Kim Lane,Boston,MA,2208
967,Dorthy,Freyn,4/29/96,49716 Buena Vista Park,Portsmouth,NH,3804
968,Gwenora,Vecard,9/16/63,9722 Linden Point,Newton,MA,2458
969,Tarah,Donke,7/18/96,1 Dryden Drive,Waltham,MA,2453
970,Berget,Skpsey,12/25/18,0 Milwaukee Lane,Newton,MA,2458
971,Avis,Brigge,8/22/76,6 Grover Trail,Worcester,MA,1654
972,Marnie,Biaggelli,6/24/66,1988 Briar Crest Park,Springfield,MA,1114
973,Abbott,Coskerry,12/31/08,8 School Point,Boston,MA,2298
974,Grenville,Caseborne,9/6/20,758 Pankratz Avenue,Cambridge,MA,2142
975,Hillary,O' Markey,8/25/84,34554 Loftsgordon Place,Brockton,MA,2405
976,Shalne,Cornelissen,4/1/71,1 Bay Way,Boston,MA,2216
977,Sherwin,Terrill,3/30/72,5 Helena Hill,Manchester,NH,3105
978,Monty,Ladyman,3/12/94,2 Marquette Hill,Boston,MA,2203
979,Gilbertine,Sarver,3/16/69,5782 Vahlen Parkway,Springfield,MA,1152
980,Ancell,Folliott,10/29/97,5 Thompson Junction,Brockton,MA,2405
981,Kinna,Dumphries,9/23/18,7870 Pepper Wood Lane,Cambridge,MA,2142
982,Hermia,Litchfield,12/30/96,732 Fuller Junction,Springfield,MA,1152
983,Rois,Scholz,4/21/64,82 Roth Way,Manchester,NH,3105
984,Caryl,Kingzet,3/26/01,2791 Magdeline Hill,Boston,MA,2283
985,Lem,Vernham,5/1/65,54154 Lien Junction,Woburn,MA,1813
986,Vernor,Klimas,8/29/10,21 Chinook Point,Springfield,MA,1129
987,Laure,Paiton,3/11/91,0 Riverside Place,Boston,MA,2298
988,May,Fasler,3/16/60,411 Moland Trail,Woburn,MA,1813
989,Eldon,Crame,8/24/89,621 Farragut Circle,Brockton,MA,2305
990,Staffard,Leathard,6/20/72,89120 Eastwood Court,Boston,MA,2283
991,Vallie,Gallardo,7/29/05,3 Surrey Court,Portsmouth,NH,214
992,Wade,Tenbrug,8/12/93,248 Morningstar Point,Boston,MA,2216
993,Sargent,Bredbury,6/13/05,919 Grim Junction,Lynn,MA,1905
994,Abey,Tommasetti,4/24/04,19540 Starling Court,Springfield,MA,1152
995,Kriste,Scotchmor,8/13/09,282 Lakewood Gardens Park,Woburn,MA,1813
996,Findley,Sweetland,2/11/80,60 Longview Road,Worcester,MA,1610
997,Goldie,Fancourt,12/7/63,901 Barnett Center,Portsmouth,NH,3804
998,Marcille,Dagon,1/4/08,47 Corry Alley,Newton,MA,2162
999,Bari,Di Gregorio,2/29/68,357 Johnson Hill,Newton,MA,2458
1000,Diann,Brisse,4/2/63,8 6th Terrace,Boston,MA,2109
1001,Peria,Brown,8/27/20,7890 Bartelt Road,Portsmouth,NH,3804
1002,Harriott,Pettman,4/17/16,8 Sutherland Point,Brockton,MA,2405
1003,Damita,Bateup,2/6/05,7667 Eagle Crest Parkway,Boston,MA,2208
1004,Cherida,Sergeaunt,1/11/78,77854 Thompson Road,Lynn,MA,1905
1005,Charmain,Mayers,7/10/76,1 Pierstorff Terrace,Springfield,MA,1129
1006,Galen,Daverin,6/22/76,46 Kingsford Alley,Boston,MA,2163
1007,Humphrey,McKirdy,2/19/78,24174 Westridge Park,Manchester,NH,3105
1008,Del,Schafer,2/4/20,6158 Hermina Park,Springfield,MA,1152
1009,Ainslee,Krabbe,9/3/70,2 Mandrake Point,Cambridge,MA,2142
1010,Theodosia,Barde,7/10/68,203 Porter Junction,Boston,MA,2124
1011,Nathanial,Gooderick,5/15/01,4 Northfield Pass,Boston,MA,2114
1012,Bo,Gaythor,12/12/08,7 Forster Center,Woburn,MA,1813
1013,Pauly,Senn,7/5/75,8983 Hoffman Center,Waltham,MA,2453
1014,Brody,Chifney,4/15/78,64694 Maryland Crossing,Brockton,MA,2405
1015,Roma,Donett,1/15/69,1678 Old Shore Point,Worcester,MA,1654
1016,Sissy,Fritz,11/10/67,67280 Westridge Center,Boston,MA,2109
1017,Lillis,Petrusch,8/12/18,0 Rutledge Drive,Worcester,MA,1610
1018,Bernadina,Bateup,4/8/96,991 Colorado Hill,Worcester,MA,1605
1019,Paten,Gregoire,7/20/80,32 Gina Park,New Bedford,MA,2745
1020,Barn,Mattack,4/8/08,7053 Moulton Avenue,Springfield,MA,1105
1021,Ashby,Sumner,5/1/86,99 Randy Terrace,Woburn,MA,1813
1022,Lory,Lambotin,2/21/81,4 Comanche Place,Lynn,MA,1905
1023,Anthe,Mark,12/13/14,295 Lunder Hill,Boston,MA,2216
1024,Dorothea,Welton,11/25/14,95 Prairieview Parkway,Boston,MA,2104
1025,Opal,Allflatt,3/23/94,27 Melody Point,Boston,MA,2298
1026,Berta,Viall,6/11/66,17 Eastwood Circle,Woburn,MA,1813
1027,Nels,Broadway,5/15/68,8 Harper Circle,Boston,MA,2163
1028,Kiele,Fullstone,10/10/71,98517 Hanson Avenue,Boston,MA,2109
1029,Clarita,Baughan,6/24/17,48 Homewood Plaza,Boston,MA,2283
1030,Barrie,Camis,1/18/09,79174 Cottonwood Drive,Boston,MA,2208
1031,Sibyl,Bence,10/10/73,8959 Forest Terrace,Springfield,MA,1105
1032,Uta,Triner,9/2/91,2 Dunning Place,Boston,MA,2298
1033,Smith,Mathiot,9/4/04,7005 Blackbird Terrace,Woburn,MA,1813
1034,Kriste,Streader,12/7/15,96359 Sunbrook Court,Boston,MA,2283
1035,Esta,Flewett,3/8/89,5 Upham Place,Boston,MA,2283
1036,Reggi,Presnell,9/28/81,210 Delaware Court,Boston,MA,2119
1037,Adina,Moggie,5/4/81,41094 Porter Terrace,Worcester,MA,1610
1038,Valaria,Abramovic,8/16/69,5606 Linden Point,Newton,MA,2458
1039,Allistir,Stoffer,4/11/06,78709 Butterfield Place,Worcester,MA,1605
1040,Merrie,Smaile,11/8/94,6482 Service Pass,Cambridge,MA,2142
1041,Boniface,Cavet,3/9/88,0 Jana Plaza,Boston,MA,2208
1042,Constantine,Pirot,2/2/09,5 Derek Trail,Boston,MA,2208
1043,Ansel,Coppens,8/12/77,204 Brentwood Center,New Bedford,MA,2745
1044,Harry,Skipsey,3/23/86,5617 Briar Crest Place,Boston,MA,2119
1045,Rolph,Faint,3/25/05,680 Garrison Alley,Boston,MA,2203
1046,Bobbi,Chiechio,5/3/02,4 Hauk Court,Portsmouth,NH,3804
1047,Florette,Louw,12/8/17,11543 Hayes Court,Lynn,MA,1905
1048,Aubine,Jakobssen,3/23/87,27384 Iowa Junction,Woburn,MA,1813
1049,Hugibert,Farron,4/29/09,34 Meadow Vale Street,Manchester,NH,3105
1050,Ilsa,Ringe,9/25/91,68646 Pierstorff Place,Manchester,NH,3105
1051,Arleen,Cockton,3/21/89,54544 Farragut Alley,Woburn,MA,1813
1052,Karil,Cavie,10/8/06,07 Ramsey Drive,Woburn,MA,1813
1053,Alexandros,Matthias,2/28/05,02164 Sunfield Terrace,Boston,MA,2163
1054,Vassili,Crilly,9/17/99,01562 Fordem Park,Waltham,MA,2453
1055,Tuckie,Conybear,2/8/05,9639 Portage Place,Boston,MA,2203
1056,Slade,Braiden,6/15/01,67077 Havey Court,Boston,MA,2109
1057,Gracia,Ventum,5/24/14,97951 Ruskin Avenue,Boston,MA,2216
1058,Ambrosius,Brekonridge,8/20/90,97259 Fuller Parkway,Boston,MA,2283
1059,Ammamaria,Zupa,10/13/83,3479 Corben Hill,Boston,MA,2203
1060,Kinna,Benediktovich,4/25/05,89583 Ruskin Plaza,Springfield,MA,1105
1061,Nerty,Spira,6/1/63,2 Messerschmidt Point,Boston,MA,2216
1062,Flora,Waszkiewicz,3/17/75,970 Farwell Way,Worcester,MA,1605
1063,Tisha,Trainer,12/6/04,5 7th Lane,Worcester,MA,1610
1064,Dion,Titcomb,3/18/19,86664 Brickson Park Parkway,Boston,MA,2208
1065,Troy,Boyda,7/22/75,75 Green Ridge Terrace,Boston,MA,2298
1066,Dirk,Elson,7/19/90,5822 Portage Road,Cambridge,MA,2142
1067,Iormina,Shevels,1/9/20,3948 Old Shore Circle,Brockton,MA,2405
1068,Alina,Higgoe,3/27/79,69 Little Fleur Point,Boston,MA,2298
1069,Elizabet,Jandel,1/9/70,235 Riverside Pass,Boston,MA,2208
1070,Honoria,Baudry,11/1/63,7773 Lighthouse Bay Park,Boston,MA,2104
1071,Xever,Raistrick,5/12/90,6 Northview Road,Portsmouth,NH,3804
1072,Madison,Stockill,5/4/82,20 Tennyson Crossing,Springfield,MA,1114
1073,Meredith,Longden,12/24/61,865 Coleman Parkway,Newton,MA,2458
1074,Dew,Spedroni,6/25/68,83 Packers Trail,Woburn,MA,1813
1075,Mufi,Limming,7/31/99,24 Coolidge Place,Boston,MA,2298
1076,Laurene,Ganders,9/4/99,49915 Hooker Junction,Boston,MA,2283
1077,Fran,Edleston,12/6/77,42162 5th Trail,Springfield,MA,1105
1078,Lilas,Penrice,8/16/15,829 Sunfield Crossing,Boston,MA,2216
1079,Bing,Hyatt,3/15/02,4532 Parkside Alley,Boston,MA,2104
1080,Solly,Sidworth,5/3/79,9 Derek Street,Boston,MA,2203
1081,Aurora,Keward,4/5/09,3828 Holy Cross Road,Worcester,MA,1605
1082,Claudelle,Knowler,5/5/62,2 Coolidge Junction,Lynn,MA,1905
1083,Indira,Puden,3/20/74,0 Fordem Circle,Springfield,MA,1114
1084,Rodina,Philpots,10/18/94,774 Hoard Trail,Boston,MA,2283
1085,Dottie,Witt,11/28/94,24 Superior Circle,Boston,MA,2283
1086,Franzen,Linforth,10/6/11,863 Bellgrove Circle,Waltham,MA,2453
1087,Jeremy,Bingle,10/6/70,902 Hayes Way,Lynn,MA,1905
1088,Alane,Pittham,1/30/10,29 Nobel Junction,Worcester,MA,1610
1089,Harald,Bahlmann,9/28/00,3 Garrison Lane,Boston,MA,2208
1090,Ban,Clemenzi,2/12/20,7 Nevada Street,Worcester,MA,1605
1091,Marline,Nattrass,11/30/86,24391 Hintze Place,Boston,MA,2208
1092,Thea,Newby,11/26/88,01147 Bultman Avenue,Manchester,NH,3105
1093,Ellis,Albany,8/12/16,822 Basil Point,Boston,MA,2298
1094,Bessie,Boxen,7/7/60,2 Esker Junction,Boston,MA,2124
1095,Stafani,Dunbleton,10/3/09,297 Cody Alley,Boston,MA,2298
1096,Ozzy,Mayworth,10/8/03,6225 Glacier Hill Road,Springfield,MA,1129
1097,Bernadene,Bucklan,5/19/77,7 East Center,Worcester,MA,1654
1098,Gaspard,Neilan,6/26/79,96 Havey Place,Watertown,MA,2472
1099,Blanca,Hearns,11/9/08,74 Anderson Point,Worcester,MA,1654
1100,Willetta,Bottby,8/18/61,6 Graceland Parkway,New Bedford,MA,2745
1101,Milka,Matteucci,8/21/13,2 Grim Court,Boston,MA,2114
1102,Laura,Paulsson,11/1/01,723 Stang Alley,Waltham,MA,2453
1103,Dode,Dilland,1/30/13,0876 Jay Circle,Boston,MA,2163
1104,Tobe,Jedrzejczak,9/19/62,884 Lakewood Lane,Boston,MA,2104
1105,Jaime,Brill,5/20/74,657 Westport Plaza,Waltham,MA,2453
1106,Sephira,Peyton,5/18/61,123 Twin Pines Lane,Brockton,MA,2305
1107,Clem,Dibden,9/15/20,3 Vahlen Hill,Springfield,MA,1114
1108,Alys,Killiner,9/1/68,2644 Donald Center,Portsmouth,NH,214
1109,Colver,Czajka,1/29/96,5 Sauthoff Plaza,Springfield,MA,1129
1110,Brianna,Thurner,1/1/72,55471 Stuart Park,Springfield,MA,1152
1111,Jodi,Kupka,7/11/71,98 Ridgeview Place,Newton,MA,2458
1112,Melody,Thiese,7/21/03,2547 Talisman Lane,New Bedford,MA,2745
1113,Alexis,Feak,5/2/72,9728 Meadow Vale Plaza,Portsmouth,NH,214
1114,Paddy,Clarycott,5/23/83,4427 Burning Wood Park,Newton,MA,2162
1115,Annie,Carlton,8/6/78,02783 Merrick Plaza,Lynn,MA,1905
1116,Tabby,Roels,6/10/82,5994 Lawn Parkway,Worcester,MA,1605
1117,Leonanie,Deller,7/14/85,4329 Golden Leaf Street,Cambridge,MA,2142
1118,Archie,McGroarty,8/27/78,77385 Russell Crossing,Boston,MA,2208
1119,Pat,Rawdales,6/6/15,9 Caliangt Circle,Woburn,MA,1813
1120,Ofelia,Facher,12/12/77,150 Logan Drive,Boston,MA,2114
1121,Minne,Twells,11/15/67,56660 Roxbury Point,Boston,MA,2203
1122,Lilla,Hatzar,9/19/73,62 Walton Avenue,New Bedford,MA,2745
1123,Shanie,Viel,12/2/81,87882 Nova Trail,Woburn,MA,1813
1124,Hortensia,Blazynski,9/6/11,73 Artisan Hill,Worcester,MA,1654
1125,Meaghan,Durrance,8/28/62,069 Hayes Avenue,Boston,MA,2109
1126,Sholom,Eglaise,4/16/87,84 Buena Vista Terrace,Springfield,MA,1152
1127,Jerry,Shutt,1/22/03,6 Main Avenue,Worcester,MA,1610
1128,Grissel,Clardge,12/16/20,063 Swallow Junction,Boston,MA,2114
1129,Adamo,Breslin,10/28/20,2949 Spohn Point,Boston,MA,2298
1130,Early,Ohanessian,5/30/09,92 Hanson Point,Portsmouth,NH,214
1131,Cynthie,Machon,12/10/83,5 Clemons Alley,Boston,MA,2203
1132,Tammie,Jodrelle,9/20/93,54 Rigney Road,Boston,MA,2298
1133,Karlyn,Morrish,9/28/74,2381 Fieldstone Center,Boston,MA,2114
1134,Brittaney,Springell,10/18/72,622 Kensington Crossing,Watertown,MA,2472
1135,Fidelio,Wildbore,6/27/15,75311 Sugar Place,Boston,MA,2216
1136,Jud,Lappin,8/25/73,10 Sloan Plaza,Waltham,MA,2453
1137,Vinni,Mulmuray,8/25/77,0426 Porter Trail,Springfield,MA,1129
1138,Marchall,Hember,6/19/74,173 Golf Avenue,Brockton,MA,2405
1139,Skipper,Lindenman,4/18/64,71 North Road,Boston,MA,2283
1140,Janeta,Laybourne,5/30/10,23085 Stone Corner Plaza,Brockton,MA,2305
1141,Devy,Verner,1/2/72,45 Monterey Drive,Boston,MA,2216
1142,Ramsay,Chirm,8/11/63,5 Sheridan Lane,Brockton,MA,2405
1143,Krisha,Bareham,2/4/06,492 Stone Corner Road,Springfield,MA,1105
1144,Braden,Rospars,6/29/14,36 Hermina Crossing,Brockton,MA,2305
1145,Tomkin,Bogges,10/22/04,8793 Garrison Drive,Portsmouth,NH,3804
1146,Dyna,Zimmermanns,12/10/63,00224 Duke Street,Brockton,MA,2405
1147,Coop,Corbridge,7/29/75,91547 Mosinee Trail,Portsmouth,NH,3804
1148,Augustina,Gonthard,5/2/18,78 Hoard Alley,Newton,MA,2458
1149,Auguste,Shephard,5/7/76,89486 Shoshone Drive,Springfield,MA,1152
1150,Kittie,Fritchley,9/17/06,60287 Nova Circle,Boston,MA,2124
1151,Aryn,Copnar,5/22/18,113 Hintze Crossing,Boston,MA,2298
1152,Nikola,Sapson,1/17/95,452 Vahlen Point,Boston,MA,2104
1153,Rori,Mulmuray,8/2/75,91729 Brown Point,Worcester,MA,1610
1154,Vernice,Thornham,9/17/82,0419 Burning Wood Park,Lynn,MA,1905
1155,Aloin,Sommerlie,2/23/70,9580 Anzinger Trail,Boston,MA,2104
1156,Clark,Celloni,3/22/13,50338 Atwood Pass,Springfield,MA,1105
1157,Cullan,Kisby,2/12/92,12 Ohio Park,Springfield,MA,1105
1158,Grace,Kenforth,7/28/04,0453 Merrick Street,Worcester,MA,1610
1159,Neddie,Trivett,8/29/79,235 Twin Pines Circle,Springfield,MA,1129
1160,Ricky,Le Prevost,4/22/82,7339 Maple Wood Point,Cambridge,MA,2142
1161,Gualterio,Bonnavant,11/5/05,0381 Becker Pass,Newton,MA,2458
1162,Aurilia,Cregg,4/27/73,3 Shelley Road,Boston,MA,2203
1163,Desiree,Burkin,12/14/10,89 Vidon Court,Portsmouth,NH,3804
1164,Salomo,Giblett,11/12/74,4738 Derek Place,Portsmouth,NH,214
1165,Trenton,Hawlgarth,10/5/09,4575 Sloan Parkway,Boston,MA,2298
1166,Teodoor,Iaduccelli,12/22/61,297 Talmadge Pass,Boston,MA,2119
1167,Natalie,Glavis,8/19/90,4 Scott Trail,Worcester,MA,1605
1168,Phyllys,Colbeck,1/25/19,47 Vermont Avenue,Springfield,MA,1152
1169,Davon,Wonham,4/15/70,034 Arrowood Alley,Cambridge,MA,2142
1170,Mayne,Houtbie,6/14/16,44991 Lien Road,New Bedford,MA,2745
1171,Chiquita,Smiley,3/25/71,7647 Walton Street,Worcester,MA,1654
1172,Urban,Wildbore,10/2/64,37253 North Court,Boston,MA,2208
1173,Brandy,Landsberg,5/10/88,25177 Kennedy Parkway,Newton,MA,2458
1174,Arny,Shrubsall,5/29/82,3 Hintze Center,Worcester,MA,1610
1175,Lolita,Flori,9/16/64,80607 Corben Way,Lynn,MA,1905
1176,Kipp,Kirsche,1/18/75,05033 Ruskin Trail,Worcester,MA,1654
1177,Thorny,Newgrosh,9/2/88,6461 School Street,Boston,MA,2208
1178,Abbot,Legrave,12/9/95,3 Sunnyside Crossing,Worcester,MA,1610
1179,Neall,Brettell,9/24/68,99 Kinsman Circle,Newton,MA,2162
1180,Fabio,Aizikov,4/28/01,4551 Lake View Plaza,Boston,MA,2208
1181,Nan,Heinonen,4/28/73,2 7th Point,New Bedford,MA,2745
1182,Sue,Conws,3/11/63,73 Quincy Alley,Boston,MA,2109
1183,Skylar,Mackleden,9/6/81,59 Magdeline Pass,Boston,MA,2109
1184,Hilliary,Huffey,5/10/72,46696 Cordelia Park,Lynn,MA,1905
1185,Karel,Masi,5/7/93,78 Bonner Way,Boston,MA,2283
1186,Padraig,Kas,4/20/87,26475 Killdeer Court,Lynn,MA,1905
1187,Kylie,Pomphrey,5/16/18,2 Talisman Plaza,Springfield,MA,1129
1188,Nola,De Laci,8/4/08,74650 Crescent Oaks Pass,Springfield,MA,1129
1189,Carey,Mudie,3/21/14,38 Chinook Place,Portsmouth,NH,3804
1190,Ryon,Bolley,3/5/89,093 Holy Cross Parkway,Springfield,MA,1105
1191,Levin,Jillitt,12/9/98,43441 Blaine Place,Boston,MA,2119
1192,Kirbee,Reddan,3/16/96,34310 Welch Circle,Boston,MA,2109
1193,Blinnie,Neild,3/13/75,437 Eastwood Parkway,Manchester,NH,3105
1194,Jeffrey,Farfalameev,1/17/74,48 Gina Alley,Boston,MA,2114
1195,Garrard,Claxson,9/25/71,43102 Delladonna Avenue,Brockton,MA,2305
1196,Henderson,Baude,7/20/89,44323 Monument Point,Boston,MA,2203
1197,Davin,Croson,10/14/77,6 Basil Parkway,Springfield,MA,1129
1198,Brandie,Akers,6/4/08,34217 Sullivan Hill,Cambridge,MA,2142
1199,Phyllys,Petche,10/28/91,09436 Arkansas Drive,Boston,MA,2298
1200,Shellysheldon,Iacopetti,6/8/08,2 Ruskin Circle,Waltham,MA,2453
1201,Linzy,Cowle,4/23/79,089 Corscot Court,Woburn,MA,1813
1202,Joycelin,Raxworthy,1/24/13,10776 Eggendart Road,Boston,MA,2298
1203,Etheline,O'Crowley,8/11/71,336 Alpine Circle,Manchester,NH,3105
1204,Ola,Trevear,2/25/85,9 Reinke Trail,Boston,MA,2203
1205,Hamlin,Bachelor,9/8/61,9246 Stoughton Plaza,Portsmouth,NH,214
1206,Asa,Consterdine,1/24/18,39459 Ruskin Drive,Springfield,MA,1114
1207,Murvyn,Grabiec,5/25/17,52651 Sunbrook Way,Worcester,MA,1605
1208,John,Korn,6/11/60,66667 Lyons Court,Boston,MA,2119
1209,Colan,Doust,5/19/60,481 Ruskin Plaza,Boston,MA,2216
1210,Berte,Triggol,3/22/98,8476 Orin Parkway,Lynn,MA,1905
1211,Cos,Corah,8/24/04,828 Ridge Oak Alley,Worcester,MA,1610
1212,Tull,Ramsell,12/19/07,36 Sutherland Center,Newton,MA,2458
1213,Fabien,McNulty,5/31/75,7 Village Green Park,Lynn,MA,1905
1214,Edgardo,Southerton,9/2/15,24989 Blackbird Trail,Newton,MA,2458
1215,Susette,Kroch,3/7/08,00741 Kings Street,Worcester,MA,1610
1216,Spenser,Huie,11/2/66,386 Nova Center,Boston,MA,2208
1217,Temple,Hollingsby,4/26/19,1 Crescent Oaks Way,Worcester,MA,1654
1218,Piggy,Cristofor,5/4/18,9 Crest Line Trail,Boston,MA,2216
1219,Felicio,Haggie,4/23/73,13 Ridgeview Pass,Newton,MA,2162
1220,Kipp,Espinha,5/8/84,8822 Sunfield Center,Boston,MA,2298
1221,Rebecca,Goldberg,12/22/12,3365 Moose Park,Boston,MA,2298
1222,Sukey,Bonnavant,6/12/80,454 Hermina Court,Springfield,MA,1129
1223,Jasen,Braiden,11/5/90,40864 Oak Place,Boston,MA,2163
1224,Ware,Silverson,10/8/89,768 Schurz Place,Waltham,MA,2453
1225,Oby,Proughten,8/17/90,1 Packers Center,Worcester,MA,1610
1226,Cecil,Rainbird,4/7/73,81486 Eliot Place,Waltham,MA,2453
1227,Carlye,Keeney,10/29/96,88382 Carioca Terrace,Worcester,MA,1610
1228,Kathy,Coltman,4/23/93,09235 Oakridge Road,Boston,MA,2124
1229,Lyndell,Boik,10/30/19,4238 Crownhardt Terrace,Boston,MA,2163
1230,Urbano,Castelow,12/28/78,41778 Dottie Place,Boston,MA,2208
1231,Camel,Poyle,9/23/04,32 Old Shore Avenue,Brockton,MA,2305
1232,Dela,Trimme,6/19/11,8 Warbler Place,Boston,MA,2109
1233,Eugene,Crissil,3/17/84,30098 Mayfield Pass,Boston,MA,2208
1234,Stu,Hook,6/4/73,860 Merry Avenue,Manchester,NH,3105
1235,Terry,Kernell,5/8/08,666 Thierer Terrace,Brockton,MA,2305
1236,Corabelle,Heis,8/27/89,0 Sutteridge Street,Brockton,MA,2405
1237,Jacquelynn,Truesdale,4/6/17,135 Morning Terrace,Lynn,MA,1905
1238,Addy,Durnian,5/6/00,26 Boyd Pass,New Bedford,MA,2745
1239,Eustacia,Olifard,2/14/69,0 Evergreen Street,Boston,MA,2298
1240,Fey,Weekland,11/5/67,11481 Truax Lane,Boston,MA,2203
1241,Gaylor,Renneke,7/1/11,3374 Ruskin Junction,Boston,MA,2203
1242,Glennie,Lambillion,3/28/63,3450 Morrow Hill,Boston,MA,2283
1243,Jacynth,Stowte,5/3/99,7729 Sunnyside Crossing,Worcester,MA,1605
1244,Corbett,Rudgerd,11/17/96,6 Chive Drive,Worcester,MA,1654
1245,Hunfredo,Prawle,3/17/86,345 8th Avenue,Worcester,MA,1610
1246,Devin,O'Suaird,7/22/65,1 Merry Court,Boston,MA,2104
1247,Carr,Cope,9/26/10,228 Hoffman Park,Boston,MA,2298
1248,Murvyn,Kroon,1/4/80,97987 Carpenter Way,Portsmouth,NH,214
1249,Anjela,Hardingham,9/5/12,6263 Colorado Crossing,Boston,MA,2104
1250,Maximilian,Ben-Aharon,2/12/91,93118 Aberg Drive,Boston,MA,2163
1251,Doralyn,Leser,4/16/75,181 Riverside Point,Brockton,MA,2305
1252,Jobi,Bumpass,4/2/01,19445 Summit Pass,Woburn,MA,1813
1253,Delmor,Wassung,8/14/93,19549 Dennis Park,Springfield,MA,1129
1254,Caitlin,Greatorex,1/31/95,5578 Dexter Drive,Boston,MA,2104
1255,Ritchie,Noir,1/29/99,88736 Pennsylvania Hill,Lynn,MA,1905
1256,Grace,Doggart,5/2/92,33 Welch Avenue,Lynn,MA,1905
1257,Thaxter,Child,4/27/68,4137 School Crossing,Waltham,MA,2453
1258,Arlyne,McKinie,6/25/64,0 Union Trail,Worcester,MA,1610
1259,Angelita,Strugnell,4/15/76,862 Burning Wood Alley,Springfield,MA,1152
1260,Indira,Ellsworthe,2/16/68,92459 Victoria Circle,Cambridge,MA,2142
1261,Aurthur,Fealy,11/9/78,71 Ilene Trail,Boston,MA,2283
1262,Kellie,Starmer,2/8/65,117 Sachtjen Way,Manchester,NH,3105
1263,King,Melmeth,7/25/76,983 Petterle Trail,Springfield,MA,1105
1264,Orran,Bamblett,4/25/17,70 Canary Way,Boston,MA,2104
1265,Byrann,Stapels,4/3/95,9149 Cascade Way,Watertown,MA,2472
1266,Ianthe,Sommerfeld,10/9/81,04 Bunker Hill Center,Portsmouth,NH,214
1267,Florinda,Chater,4/20/82,06 Brown Plaza,Boston,MA,2216
1268,Adan,Jirus,5/3/80,82 Sloan Circle,Newton,MA,2458
1269,Richard,Mayow,5/8/00,7587 Onsgard Hill,Waltham,MA,2453
1270,Papagena,Briffett,1/15/05,462 Cordelia Terrace,Lynn,MA,1905
1271,Blaine,Laurie,8/3/91,673 Springview Plaza,Brockton,MA,2405
1272,Austen,Harbard,10/19/00,106 Village Alley,Portsmouth,NH,3804
1273,Inesita,Buten,2/17/77,0373 Menomonie Trail,Brockton,MA,2305
1274,Neala,Ashmore,5/15/06,37724 Rigney Circle,Lynn,MA,1905
1275,Lizzy,Ansley,7/26/80,633 Corry Alley,Boston,MA,2109
1276,Leoine,Vardie,4/7/92,12128 Longview Plaza,Worcester,MA,1654
1277,Roseanne,Crosston,3/6/00,30 Fieldstone Avenue,Brockton,MA,2305
1278,Verne,Dickenson,1/22/95,977 Ludington Park,Boston,MA,2114
1279,Jocelyne,Bertelet,12/10/09,4066 Spenser Road,Woburn,MA,1813
1280,Kirby,O'Neill,6/18/69,650 Katie Avenue,Boston,MA,2124
1281,Charlene,Bosma,6/21/19,871 7th Pass,Springfield,MA,1152
1282,Kennett,Campos,11/23/16,1665 Beilfuss Avenue,Woburn,MA,1813
1283,Courtney,Ryam,1/3/67,4585 Annamark Plaza,Worcester,MA,1610
1284,Lem,Matthiae,12/15/80,87 Dexter Parkway,Worcester,MA,1610
1285,Myrle,Fausch,4/24/84,72 Annamark Place,Springfield,MA,1105
1286,Abbe,Terrans,10/15/65,33 Buhler Avenue,Worcester,MA,1605
1287,Findley,Benediktovich,9/27/21,50122 Miller Circle,Newton,MA,2162
1288,Caroline,Sone,2/11/98,848 Hayes Avenue,Springfield,MA,1152
1289,Germain,McDuffie,10/29/05,49 Thompson Point,Watertown,MA,2472
1290,Nick,Walsham,11/7/16,4423 Sachtjen Lane,Springfield,MA,1105
1291,Perkin,Surphliss,7/26/70,25 Bunting Drive,Boston,MA,2119
1292,Hedwig,Smiz,1/13/17,9 Cody Center,Boston,MA,2163
1293,Norbert,Fewlass,11/1/14,0291 Acker Alley,Portsmouth,NH,3804
1294,Barbey,Warbrick,9/22/92,02 Cherokee Crossing,Boston,MA,2163
1295,Lilllie,Sutlieff,3/12/69,791 Dwight Place,Brockton,MA,2305
1296,Calida,Corriea,1/19/80,4 Bashford Pass,Boston,MA,2124
1297,Fianna,Kacheler,7/7/97,20857 Lien Junction,Brockton,MA,2405
1298,Perry,Titchmarsh,12/28/61,8 Randy Center,Watertown,MA,2472
1299,Clemmy,Licas,2/22/04,048 Birchwood Way,Worcester,MA,1605
1300,Rene,Sugar,7/13/81,359 Jay Plaza,Boston,MA,2163
1301,Elysha,Radband,3/14/08,50320 Ryan Crossing,Worcester,MA,1654
1302,Eryn,Plante,7/3/73,3042 Namekagon Junction,Woburn,MA,1813
1303,Terrell,Vallow,8/27/03,198 Morningstar Drive,Boston,MA,2208
1304,Laurens,Kesley,10/3/74,7629 Continental Court,Watertown,MA,2472
1305,Donnell,Marty,7/5/79,5 Mallory Terrace,Portsmouth,NH,214
1306,Bordie,Whilde,3/31/81,21854 Schiller Point,New Bedford,MA,2745
1307,Leontine,Deeson,4/27/82,932 Sugar Parkway,Manchester,NH,3105
1308,Fenelia,Gore,6/21/08,08744 Bartillon Parkway,Portsmouth,NH,3804
1309,Juliette,Valentine,12/12/10,0 Scofield Park,Boston,MA,2114
1310,Howard,Gasnell,3/6/83,3205 Division Lane,Springfield,MA,1129
1311,Bobine,Wigfall,9/10/16,3968 Utah Alley,Springfield,MA,1129
1312,Diandra,Cornner,3/14/60,972 Texas Crossing,Worcester,MA,1654
1313,Jeddy,Ubach,5/1/81,22500 Parkside Park,Woburn,MA,1813
1314,Say,Shavel,2/21/63,7 American Ash Place,Manchester,NH,3105
1315,Myca,Disbury,10/31/69,5 Westport Place,Worcester,MA,1605
1316,Kaycee,Gudgion,12/20/01,634 Kinsman Plaza,Worcester,MA,1610
1317,Ines,McDell,1/27/98,7915 Pankratz Pass,Newton,MA,2162
1318,Antonietta,Veltmann,4/3/15,3 Kenwood Circle,Brockton,MA,2405
1319,Dorrie,MacAlester,6/6/84,0 Butternut Lane,Portsmouth,NH,214
1320,Slade,Bortolini,10/1/65,36 Ronald Regan Crossing,Boston,MA,2109
1321,Garrard,McCarrison,6/4/98,841 Waubesa Lane,Worcester,MA,1654
1322,Jeramie,Bysshe,3/25/94,214 Summerview Street,Boston,MA,2283
1323,Maure,Grigorey,2/1/90,5 School Pass,Springfield,MA,1105
1324,Archibald,Gresley,9/22/62,43 Westend Drive,Cambridge,MA,2142
1325,Nissa,Skala,10/23/66,4 Crest Line Lane,Manchester,NH,3105
1326,Garvey,Ledeker,7/23/91,52 Garrison Hill,Newton,MA,2162
1327,Angus,Dunbar,12/10/71,549 Merry Place,Woburn,MA,1813
1328,Agatha,Ducker,5/26/95,7882 Graceland Pass,Boston,MA,2298
1329,Kylie,Ohrtmann,4/6/12,7753 Ramsey Street,Springfield,MA,1105
1330,Elane,Wimsett,2/13/13,1461 Clarendon Street,Boston,MA,2124
1331,Davine,Dod,8/7/62,3913 Myrtle Junction,Watertown,MA,2472
1332,Cordy,Berkery,5/16/63,1815 Warner Drive,Worcester,MA,1654
1333,Lavina,Stops,5/27/66,432 Hanover Court,Boston,MA,2119
1334,Fritz,Dorcey,6/20/73,6242 Namekagon Avenue,Worcester,MA,1610
1335,Christan,Bourdas,8/10/93,379 Fieldstone Parkway,Boston,MA,2216
1336,Abbot,Coggill,9/7/81,93822 Arizona Parkway,Worcester,MA,1605
1337,Alisander,Feehely,3/31/96,42 Hermina Crossing,Brockton,MA,2305
1338,Jami,Lombardo,10/15/78,6 New Castle Junction,Manchester,NH,3105
1339,Bevan,Echallie,7/6/90,3790 Jackson Court,Boston,MA,2104
1340,Karil,Drage,5/30/08,1982 Mockingbird Pass,Boston,MA,2109
1341,Kaila,Logsdail,3/5/80,35670 Oriole Circle,Brockton,MA,2405
1342,Normie,Eales,8/11/20,4 Everett Crossing,Boston,MA,2114
1343,Bethina,Fossey,8/26/12,59 Schlimgen Way,Springfield,MA,1105
1344,Camellia,Addlestone,8/8/21,27506 Waubesa Avenue,Boston,MA,2124
1345,Morgan,Sammonds,7/21/85,1358 Heffernan Junction,Brockton,MA,2405
1346,Collen,Verney,2/18/04,55857 Fuller Point,Springfield,MA,1114
1347,Raeann,Mitchener,1/30/78,37 Florence Trail,Boston,MA,2104
1348,Humfried,Mussington,9/8/90,011 Clemons Junction,Cambridge,MA,2142
1349,Corrine,Chatwood,7/29/85,14303 Buena Vista Center,Springfield,MA,1105
1350,Cherise,MacQuaker,5/21/80,6085 Fulton Drive,Worcester,MA,1605
1351,Adria,Fishly,6/12/18,5 Dottie Center,Worcester,MA,1605
1352,Mersey,Daber,7/26/93,550 Lyons Point,Boston,MA,2283
1353,Aaren,Stockin,7/13/70,90 Dottie Way,Worcester,MA,1605
1354,Seymour,Farguhar,3/2/79,6 Jay Parkway,Portsmouth,NH,3804
1355,Petr,Hatfull,3/30/63,71 Shasta Place,Worcester,MA,1610
1356,Germain,Glossup,4/4/80,73 Old Shore Avenue,Worcester,MA,1610
1357,Sarajane,Moorey,12/26/84,876 Delaware Point,Boston,MA,2208
1358,Florenza,Phythian,3/30/84,12 Donald Place,Boston,MA,2216
1359,Ranee,Littlejohns,1/30/62,0572 Leroy Trail,Boston,MA,2216
1360,Anthiathia,Darnbrook,10/20/16,37041 Thierer Drive,Boston,MA,2216
1361,Kalvin,Hatherill,3/24/20,6619 Aberg Court,Boston,MA,2119
1362,Vito,Ghio,2/2/14,01 Portage Point,Portsmouth,NH,3804
1363,Minnaminnie,Middas,5/19/11,2709 Randy Drive,Brockton,MA,2405
1364,Arvin,Stutard,6/13/69,2 Algoma Place,Boston,MA,2283
1365,Alane,Noir,4/27/17,79620 Hoepker Court,Boston,MA,2208
1366,April,Buscher,3/18/90,7 Lakewood Gardens Hill,Springfield,MA,1105
1367,Dale,Skegg,6/1/19,2 Washington Pass,New Bedford,MA,2745
1368,Agna,Malter,5/10/14,9 Debs Point,Worcester,MA,1610
1369,Paige,Le Floch,3/13/82,945 Heffernan Court,Manchester,NH,3105
1370,Rollie,Saylor,9/16/05,72644 Eagan Pass,Brockton,MA,2405
1371,Elsa,Sheilds,4/22/08,92 Ridgeview Plaza,Boston,MA,2216
1372,Olav,Cowper,1/17/72,52 Village Green Place,Boston,MA,2163
1373,Libby,Yegorkov,8/6/09,5 Reindahl Drive,Watertown,MA,2472
1374,Fayette,Banks,1/12/85,9 Elka Drive,Brockton,MA,2405
1375,Juliet,Tayler,12/14/02,08 Nancy Point,Boston,MA,2216
1376,Matthaeus,Eckersley,5/12/08,151 Oxford Junction,Portsmouth,NH,214
1377,Ronica,Wardhaugh,9/27/91,76070 Delaware Place,Boston,MA,2208
1378,Beniamino,Matts,5/4/88,911 Jackson Road,Worcester,MA,1605
1379,Tracy,Mougel,1/16/05,9496 Moland Pass,Woburn,MA,1813
1380,Kaitlyn,Sedgeman,4/4/19,95376 Menomonie Point,Boston,MA,2298
1381,Leroi,Levinge,12/14/80,7 Talmadge Hill,Worcester,MA,1605
1382,Ambrosio,Zellner,11/30/82,2 Mosinee Court,Woburn,MA,1813
1383,Nanete,Garford,10/21/03,2 Duke Road,Boston,MA,2216
1384,Hollie,Wheelband,4/27/63,5727 Sundown Circle,Boston,MA,2203
1385,Gusti,Ravenshear,10/21/92,79570 Dexter Park,Manchester,NH,3105
1386,Laurie,Gilhouley,1/26/12,930 Northview Trail,Brockton,MA,2305
1387,Brigid,Cubbini,9/26/94,008 Talisman Alley,Worcester,MA,1654
1388,Jillana,Lacoste,6/20/63,252 Knutson Court,Boston,MA,2298
1389,Giusto,Skae,5/18/83,40533 Maywood Place,Woburn,MA,1813
1390,Mikel,Ethridge,9/18/88,7382 Charing Cross Crossing,Manchester,NH,3105
1391,Ivar,Domerque,6/17/13,4715 American Ash Alley,Worcester,MA,1605
1392,Dirk,Canet,6/2/64,8457 Esch Park,Springfield,MA,1152
1393,Gaspard,Longstaffe,6/5/68,7229 Mayer Avenue,Boston,MA,2124
1394,Ibby,Giovanitti,2/4/77,39705 Schiller Point,Lynn,MA,1905
1395,Ddene,Tooth,10/14/78,8240 Cordelia Avenue,Brockton,MA,2405
1396,Gerti,Wrightim,11/5/08,31041 Kings Avenue,Boston,MA,2124
1397,Aura,Carnier,10/18/11,3 Scofield Place,Worcester,MA,1605
1398,Brit,Granville,2/16/70,1601 Drewry Way,Springfield,MA,1105
1399,Albertina,Dederich,6/29/80,61909 Sycamore Pass,Worcester,MA,1605
1400,Eran,Learmonth,1/31/89,82 Hallows Court,Portsmouth,NH,214
1401,Darya,Halworth,10/6/18,954 American Ash Terrace,Boston,MA,2208
1402,Daffy,Vinson,12/12/13,08 Fuller Plaza,Boston,MA,2283
1403,Charmion,Kinder,4/24/71,56 Forster Hill,Manchester,NH,3105
1404,Eberhard,Simants,8/7/87,94698 Cordelia Street,Newton,MA,2458
1405,Hinda,Venables,12/16/69,3898 Rusk Point,Boston,MA,2124
1406,Tremaine,D'Adda,12/2/70,08961 Fallview Lane,Worcester,MA,1654
1407,Towney,Eckert,11/7/20,464 Milwaukee Terrace,Manchester,NH,3105
1408,Randi,Brunini,8/4/11,033 Ramsey Point,Boston,MA,2203
1409,Gena,Yakov,12/19/71,7 Miller Street,Manchester,NH,3105
1410,Audra,Rivers,6/2/64,6 Maple Point,Cambridge,MA,2142
1411,Philomena,Pozzi,9/10/86,76 Eggendart Circle,Manchester,NH,3105
1412,Raf,Searson,7/31/67,43429 Westridge Lane,Worcester,MA,1605
1413,Lisabeth,Shawell,3/1/99,56 Killdeer Crossing,Manchester,NH,3105
1414,Zed,Patterson,6/5/21,3789 Truax Lane,Cambridge,MA,2142
1415,Lucais,Hurley,1/5/96,43 Gina Center,Newton,MA,2162
1416,Zachary,Shorter,4/1/94,207 Service Street,Cambridge,MA,2142
1417,Raynell,Winton,10/1/13,5369 Coleman Point,Portsmouth,NH,214
1418,Monti,Trimble,9/25/17,49 Canary Road,Boston,MA,2119
1419,Roy,Blaszczak,10/9/13,855 Reindahl Park,Newton,MA,2162
1420,Molly,Duffree,2/20/69,469 Rowland Way,Springfield,MA,1152
1421,Turner,Delort,2/1/20,0095 Fairfield Junction,Springfield,MA,1152
1422,Malissia,Gibbon,8/18/04,4 Garrison Road,Portsmouth,NH,3804
1423,Eve,Antram,12/13/18,29385 West Terrace,Boston,MA,2109
1424,Deeyn,Reeders,1/10/89,897 Walton Court,Boston,MA,2163
1425,Anastassia,Lautie,11/24/82,2097 Thierer Court,Newton,MA,2458
1426,Austine,Iacovone,6/9/96,0 Goodland Alley,Worcester,MA,1654
1427,Bevvy,Cominotti,7/9/98,984 Sheridan Drive,Newton,MA,2162
1428,Ikey,Newland,5/14/98,4474 Dayton Junction,Boston,MA,2104
1429,Roxy,Gerish,8/6/07,797 Fair Oaks Road,Springfield,MA,1152
1430,Cedric,Elecum,7/21/72,0 Waywood Pass,Portsmouth,NH,214
1431,Lauren,Eastway,5/26/15,0693 Canary Circle,Newton,MA,2458
1432,Zeb,Sherrocks,9/13/92,6 Del Sol Trail,Worcester,MA,1605
1433,Emili,Charge,6/28/68,752 Holmberg Place,Worcester,MA,1610
1434,Kane,Santore,11/23/12,5 Walton Junction,Brockton,MA,2305
1435,Dena,Watkiss,7/13/07,280 Ridgeview Street,Woburn,MA,1813
1436,Dorita,Sneller,8/4/89,62 Holmberg Park,Portsmouth,NH,214
1437,Levin,Heinig,2/20/02,41880 Eliot Plaza,Newton,MA,2162
1438,Marci,aManger,5/2/07,95247 Farmco Terrace,Boston,MA,2216
1439,Lethia,Seggie,11/23/81,358 Clyde Gallagher Plaza,Woburn,MA,1813
1440,Nancey,O'Glassane,5/2/93,934 Di Loreto Trail,Brockton,MA,2405
1441,Ginger,Pawfoot,6/26/08,450 Hollow Ridge Road,Boston,MA,2203
1442,Rubie,Osan,8/8/64,5 Morningstar Drive,Lynn,MA,1905
1443,Andonis,Chaffen,9/20/73,0523 Oneill Point,Portsmouth,NH,3804
1444,Krystalle,Ryves,11/18/69,3324 Havey Street,Watertown,MA,2472
1445,Brenna,O'Sculley,10/22/07,86578 Arapahoe Street,Springfield,MA,1105
1446,Alanah,Goodwyn,7/3/63,5838 Prairieview Terrace,Boston,MA,2124
1447,Carlene,Caffin,1/5/80,6418 Clyde Gallagher Avenue,New Bedford,MA,2745
1448,Jaquenette,Merrall,3/1/68,1 Cherokee Parkway,Woburn,MA,1813
1449,Graeme,Greatrakes,8/29/12,008 Northland Junction,Newton,MA,2162
1450,Elayne,Keune,9/5/62,62 Clyde Gallagher Junction,Newton,MA,2458
1451,Nikolia,Macieiczyk,3/20/61,5796 Russell Point,New Bedford,MA,2745
1452,Joeann,Barrowcliffe,12/12/14,9 Waxwing Court,Springfield,MA,1152
1453,Claire,Godfree,10/18/96,72703 Fieldstone Road,Portsmouth,NH,214
1454,Sile,Breming,11/6/11,65 Chinook Plaza,Boston,MA,2298
1455,Fiorenze,MacAdie,7/9/88,43577 Johnson Street,Newton,MA,2458
1456,Irvin,Birks,12/4/20,1269 Northland Court,Boston,MA,2216
1457,Regine,Cornthwaite,11/13/75,3896 Russell Terrace,Worcester,MA,1654
1458,Rowen,Kirvin,12/15/91,2 Northview Crossing,Boston,MA,2124
1459,Elfrida,Bultitude,7/17/06,8 Sachtjen Lane,Springfield,MA,1114
1460,Waylin,Laviste,5/25/16,622 Hoffman Trail,Waltham,MA,2453
1461,Aubry,Hammant,6/13/89,6848 Bunting Pass,Springfield,MA,1152
1462,Borden,Kingzet,7/18/93,7 Corben Junction,Springfield,MA,1114
1463,Franciska,Kidman,4/1/02,554 Orin Trail,Springfield,MA,1129
1464,Bernarr,Georg,6/15/17,629 Portage Parkway,Manchester,NH,3105
1465,Nelly,Misselbrook,8/1/91,20524 Holmberg Pass,Boston,MA,2163
1466,Florrie,Blazynski,9/1/86,9785 North Point,Boston,MA,2208
1467,Jacquelin,Spawton,2/23/01,306 Farwell Terrace,Portsmouth,NH,214
1468,Flore,Haliday,2/7/01,8 Eagan Road,Brockton,MA,2305
1469,Jerri,Pierpoint,6/23/72,2985 Gale Way,Boston,MA,2283
1470,Bertina,March,8/25/67,585 Lawn Avenue,Worcester,MA,1654
1471,Sapphire,Groome,7/27/16,211 Miller Drive,Worcester,MA,1605
1472,Philis,Quilligan,5/10/63,35721 Sauthoff Drive,Boston,MA,2124
1473,Zarah,Whatman,7/27/99,1 Stuart Circle,Manchester,NH,3105
1474,Dun,McKimm,6/2/04,06574 Twin Pines Park,Waltham,MA,2453
1475,Terrye,Cartmale,6/10/72,3 Eagle Crest Pass,Manchester,NH,3105
1476,Baron,Milton,1/15/89,1086 Harbort Junction,Boston,MA,2124
1477,Dalia,Derx,8/14/15,39 Roth Pass,Boston,MA,2216
1478,Jemmie,Calderwood,12/20/04,9 Oxford Lane,Springfield,MA,1105
1479,Lynn,Dunge,11/24/97,243 La Follette Circle,Manchester,NH,3105
1480,Vickie,Cordsen,8/17/77,6962 Kenwood Lane,Worcester,MA,1654
1481,Nichol,Travis,5/15/92,9 Westridge Crossing,Boston,MA,2283
1482,Dudley,Zanettini,8/14/77,739 Northport Junction,Portsmouth,NH,3804
1483,Mathe,Durrad,6/15/17,39579 Sutteridge Pass,Boston,MA,2163
1484,Rochella,Whitnall,7/15/88,57687 Crownhardt Terrace,Springfield,MA,1114
1485,Paton,Saiens,10/1/09,1 Rigney Plaza,Brockton,MA,2405
1486,Clarey,McLaggan,11/18/85,921 Michigan Junction,Boston,MA,2208
1487,Leon,Dalyiel,7/5/69,6 Randy Drive,Manchester,NH,3105
1488,Olympe,Tyzack,2/9/11,89 Artisan Court,Boston,MA,2163
1489,Robina,Audsley,2/8/15,6540 Montana Parkway,Boston,MA,2216
1490,Dorella,Paskerful,8/4/99,7 Twin Pines Alley,Boston,MA,2298
1491,Kesley,Course,3/12/00,9291 Vidon Road,Worcester,MA,1654
1492,Molly,Cicco,7/14/16,24 Jackson Plaza,Boston,MA,2114
1493,Yankee,Bilbrooke,10/1/92,77 Stephen Plaza,Manchester,NH,3105
1494,Nichols,Malone,12/4/20,6423 School Road,Boston,MA,2283
1495,Dory,Khristyukhin,8/7/80,9463 Coolidge Terrace,Springfield,MA,1129
1496,Sven,Newvill,2/9/91,6151 Magdeline Junction,Watertown,MA,2472
1497,Bertrando,Stitle,11/25/75,43 Comanche Hill,Worcester,MA,1605
1498,Stevena,Vigours,8/22/08,17 Center Circle,Boston,MA,2109
1499,Velvet,Fisk,6/17/17,93739 Little Fleur Point,Boston,MA,2283
1500,Wilie,Heggison,5/4/88,9 Elmside Center,Boston,MA,2124
1501,Mamie,Paradise,2/25/65,2 Northwestern Park,Boston,MA,2203
1502,Halsey,Dudek,3/21/06,0 Fair Oaks Trail,Boston,MA,2216
1503,Konstantin,Legge,8/30/72,69 Anthes Park,Boston,MA,2203
1504,Sancho,Wormleighton,6/3/90,759 Independence Place,Boston,MA,2216
1505,Tanner,Jeanesson,5/17/14,2785 Meadow Valley Alley,Boston,MA,2163
1506,Mufinella,Gherardini,8/14/21,7300 Anzinger Place,Newton,MA,2458
1507,Hunfredo,Mongeot,3/22/85,22211 Sunnyside Place,Boston,MA,2283
1508,Marchall,Hryskiewicz,5/28/66,203 Eagan Trail,Newton,MA,2458
1509,Leslie,Camelin,11/15/13,68 Menomonie Trail,Worcester,MA,1605
1510,Phillida,Capeling,9/5/85,290 Hallows Drive,Manchester,NH,3105
1511,Sib,Bergeon,1/7/70,4 Mallory Center,Cambridge,MA,2142
1512,Darcy,Rushforth,4/10/69,59184 Brown Place,Brockton,MA,2305
1513,Arden,Ekkel,5/27/63,4185 Jay Parkway,Waltham,MA,2453
1514,Abbie,Beckett,10/30/98,7439 Di Loreto Junction,Boston,MA,2203
1515,Michaela,Norley,4/14/62,059 Morning Court,Springfield,MA,1114
1516,Chicky,Bines,4/2/07,785 Magdeline Street,Lynn,MA,1905
1517,Maurizio,Belchamp,1/21/16,1 Marquette Drive,Springfield,MA,1114
1518,Rhiamon,Formilli,3/16/95,4 Northport Circle,Boston,MA,2163
1519,Wileen,Bodycomb,8/26/69,583 La Follette Lane,Boston,MA,2124
1520,Court,Mendel,4/30/62,3148 2nd Park,Boston,MA,2203
1521,Elyse,Shaddock,12/29/99,012 Cordelia Center,Springfield,MA,1152
1522,Bucky,Leabeater,10/9/95,62192 Starling Road,Lynn,MA,1905
1523,Jannelle,Oneal,5/13/95,91 Pankratz Center,Springfield,MA,1105
1524,Ericka,Lemary,8/27/96,60 Rutledge Avenue,Manchester,NH,3105
1525,Gertrudis,Rodenhurst,10/1/08,29 Warbler Junction,Boston,MA,2119
1526,Halimeda,Ware,7/18/75,2 Garrison Court,Waltham,MA,2453
1527,Ardene,O'Corr,8/30/94,44938 Melby Center,Newton,MA,2458
1528,Liam,Wilden,8/19/00,28 Fairfield Plaza,Manchester,NH,3105
1529,Vinny,Bahl,11/16/96,92 Summerview Street,Boston,MA,2208
1530,Pail,Feares,4/6/68,407 Crownhardt Park,Boston,MA,2283
1531,Olivier,Duckerin,2/1/03,8 Hollow Ridge Place,Portsmouth,NH,214
1532,Willette,Tedridge,2/3/04,7 Eliot Plaza,Boston,MA,2163
1533,Eal,Colten,8/15/99,751 Dryden Terrace,Portsmouth,NH,3804
1534,Tammi,Blonfield,3/5/99,9 Hauk Road,Springfield,MA,1129
1535,Marshall,Marrian,2/7/04,7 Corben Drive,Boston,MA,2283
1536,Georgie,Kingescot,6/27/73,40419 Larry Road,Cambridge,MA,2142
1537,Koralle,Bratcher,7/25/96,9083 Charing Cross Plaza,Boston,MA,2298
1538,Emmalyn,Bowery,9/25/97,403 Parkside Lane,Woburn,MA,1813
1539,Lombard,Westmerland,12/25/17,20 Monica Drive,Brockton,MA,2305
1540,Tamarah,Faulds,11/13/66,5 Twin Pines Court,Brockton,MA,2405
1541,Joyan,Bergstrand,9/15/77,54253 Ridgeway Park,Boston,MA,2283
1542,Gibbie,Valti,1/22/86,3 5th Crossing,New Bedford,MA,2745
1543,Blanch,Marzelli,10/22/19,6 Kipling Hill,Boston,MA,2208
1544,Rosamund,Seton,7/1/70,659 Magdeline Plaza,Worcester,MA,1605
1545,Chrystal,Daws,10/17/05,18 Dayton Terrace,Boston,MA,2124
1546,Charlean,Pascoe,5/12/05,78 Dawn Way,Boston,MA,2208
1547,Eamon,Salamon,4/15/78,2 3rd Park,Boston,MA,2109
1548,Jeremy,Bartlet,11/21/98,601 Ryan Hill,Worcester,MA,1605
1549,Barry,Batrim,7/2/63,43318 Pearson Point,Worcester,MA,1610
1550,Merrill,Basilotta,8/26/86,374 Burrows Junction,Springfield,MA,1152
1551,Sigismondo,Coultas,4/27/08,29512 Porter Crossing,Boston,MA,2216
1552,Connie,Corrao,11/25/72,28 Badeau Lane,Newton,MA,2458
1553,Becky,Everley,4/3/07,07052 Garrison Center,Newton,MA,2458
1554,Molly,Keelinge,5/27/06,8 Old Gate Lane,Waltham,MA,2453
1555,Catrina,Whiteway,7/31/94,29 Calypso Plaza,Worcester,MA,1610
1556,Mohandas,Isakovitch,10/17/62,10940 Algoma Trail,Watertown,MA,2472
1557,Modesta,Authers,4/23/76,2 Mockingbird Avenue,Boston,MA,2298
1558,Nataline,Hentze,2/20/87,2500 Lakeland Road,Portsmouth,NH,3804
1559,Darbie,Jacklings,1/21/00,14302 Eastlawn Parkway,Woburn,MA,1813
1560,Thomasa,Scotti,9/13/69,807 New Castle Way,Boston,MA,2119
1561,Bancroft,Finnigan,7/11/65,70149 Mockingbird Way,Brockton,MA,2305
1562,Foster,Jeremaes,3/4/08,00 Forest Way,Worcester,MA,1654
1563,Brooks,Treece,6/1/02,29618 Banding Lane,Boston,MA,2203
1564,Euphemia,Blacklawe,12/24/76,961 Chive Lane,Boston,MA,2104
1565,Helge,Calcraft,4/27/81,0 Bultman Circle,Springfield,MA,1114
1566,Rab,Grimm,3/17/87,08 Dixon Park,Newton,MA,2458
1567,Dawna,Tenney,1/28/08,7242 Iowa Circle,Boston,MA,2203
1568,Anderea,Mattholie,2/10/71,6566 Karstens Way,Springfield,MA,1129
1569,Carolan,Mangam,6/19/09,7 Beilfuss Pass,Boston,MA,2216
1570,Lindsey,O' Flaherty,11/20/05,715 Macpherson Trail,Portsmouth,NH,3804
1571,Layney,Daveley,9/17/10,565 International Lane,Boston,MA,2109
1572,Jane,Lidden,9/6/95,6 Manufacturers Circle,Worcester,MA,1610
1573,Pearle,Sumpner,1/20/79,40 Hovde Court,Manchester,NH,3105
1574,Gwendolen,Flack,4/4/16,3754 Forest Run Crossing,Boston,MA,2119
1575,Verney,Brandi,12/7/91,75374 2nd Alley,Cambridge,MA,2142
1576,Burl,Yurchenko,7/10/86,47104 Barnett Center,Portsmouth,NH,3804
1577,Chuck,Lidden,1/17/12,8 Coleman Plaza,Cambridge,MA,2142
1578,Doloritas,Bedbrough,7/17/85,09127 Monument Avenue,Portsmouth,NH,214
1579,Pamelina,Dyshart,9/4/17,14458 Mallard Drive,Woburn,MA,1813
1580,Georgina,Sign,2/1/13,70334 Vidon Alley,Lynn,MA,1905
1581,Maurizio,McGillivray,1/30/71,6178 Truax Crossing,Springfield,MA,1152
1582,Brooks,Leare,7/15/00,1 Laurel Center,Boston,MA,2298
1583,Mac,Achrameev,10/29/94,8 Bobwhite Drive,Woburn,MA,1813
1584,Annissa,Tamplin,5/15/21,4624 Michigan Hill,Worcester,MA,1654
1585,Paddie,Wearne,9/2/16,3 Sundown Circle,Woburn,MA,1813
1586,Jacenta,Balthasar,3/6/76,0048 Monument Avenue,Boston,MA,2208
1587,Grace,Matzl,9/4/18,01 Mccormick Drive,Brockton,MA,2405
1588,Chase,Matyasik,3/30/99,17073 Toban Point,Watertown,MA,2472
1589,Alfonse,Pibworth,9/7/70,45 Gerald Street,Cambridge,MA,2142
1590,Clayborne,Cuttelar,1/2/96,66659 Onsgard Court,Worcester,MA,1610
1591,Nicola,Wysome,3/26/89,73 Roth Way,Boston,MA,2104
1592,Rhoda,Wollaston,3/11/20,0732 Bowman Way,Portsmouth,NH,3804
1593,Freida,Clinkard,8/13/96,7381 Bunting Pass,Watertown,MA,2472
1594,Walker,Hallewell,10/22/07,194 Old Shore Hill,Boston,MA,2119
1595,Emelita,Swett,1/27/70,39 Aberg Hill,Worcester,MA,1654
1596,Ferdinanda,Wehden,2/11/17,91547 Kim Park,Cambridge,MA,2142
1597,Dulcie,Gloster,8/29/96,60390 Comanche Circle,Manchester,NH,3105
1598,Simon,Milkin,2/5/86,519 Larry Lane,Waltham,MA,2453
1599,Susette,Berney,5/2/17,2146 Sachs Street,Worcester,MA,1654
1600,Annelise,Begent,8/15/10,87814 Cordelia Parkway,Newton,MA,2162
1601,Noelyn,Tame,5/25/85,24 Forest Dale Plaza,Worcester,MA,1654
1602,Griffin,Coote,2/25/95,37768 Cottonwood Parkway,Cambridge,MA,2142
1603,Cassie,Stoller,9/30/07,24480 Farmco Place,Lynn,MA,1905
1604,Janaya,Kilbourn,1/24/67,12593 Packers Way,Watertown,MA,2472
1605,Lalo,Busain,9/4/99,70921 Memorial Way,Manchester,NH,3105
1606,Danie,Eschelle,6/6/78,749 Spaight Circle,Worcester,MA,1654
1607,Fritz,Ferrario,1/13/65,8 Orin Hill,Springfield,MA,1129
1608,Cynde,Hinsch,2/18/75,3583 Commercial Drive,Watertown,MA,2472
1609,Joell,Belfit,10/28/17,99124 Melrose Hill,Boston,MA,2124
1610,Garold,Lauchlan,3/18/05,64 Buena Vista Park,Brockton,MA,2305
1611,Fabien,Tipton,5/17/93,2380 Steensland Court,Woburn,MA,1813
1612,Katinka,McMurty,1/25/77,35261 Schmedeman Place,Springfield,MA,1152
1613,Benedikta,Fazzioli,3/27/89,4 Sutteridge Center,Boston,MA,2216
1614,Sandra,Biasio,8/9/81,49632 Amoth Center,Newton,MA,2162
1615,Urson,Carrabott,5/3/79,79 Beilfuss Avenue,Portsmouth,NH,3804
1616,Misha,Conneely,12/3/60,96 East Avenue,Boston,MA,2109
1617,Leon,Bridger,4/9/06,3125 Dryden Alley,Boston,MA,2203
1618,Cariotta,Crippell,11/16/06,5 Anderson Drive,Boston,MA,2114
1619,Conrado,Lundberg,1/2/88,906 Claremont Road,Newton,MA,2162
1620,Sterne,Guillet,5/18/70,65 Spaight Hill,Boston,MA,2104
1621,Brooke,Ramelot,7/8/88,0367 Kingsford Crossing,Newton,MA,2162
1622,Biddy,Guihen,3/30/78,66827 Park Meadow Point,Boston,MA,2109
1623,Kathryne,Seger,2/1/64,845 Messerschmidt Court,Springfield,MA,1152
1624,Zackariah,Belfrage,4/19/68,36608 Lotheville Plaza,Springfield,MA,1152
1625,Niven,Saffer,10/13/66,8 Heffernan Lane,Lynn,MA,1905
1626,Ardyth,Rizzone,12/8/72,16955 Jenifer Avenue,Boston,MA,2119
1627,Nye,Simla,4/24/78,57883 Sunnyside Point,Watertown,MA,2472
1628,Lusa,Eschalotte,2/26/81,7235 Hallows Place,Cambridge,MA,2142
1629,Shem,Gunter,11/24/09,70 Marquette Place,Springfield,MA,1129
1630,Wilburt,Umpleby,6/9/19,35089 Mayer Parkway,Worcester,MA,1610
1631,Maximo,Jahns,11/8/74,1620 Armistice Plaza,Watertown,MA,2472
1632,Camile,Hurworth,1/11/78,06 Bellgrove Court,Boston,MA,2216
1633,Bernie,Snowden,11/23/84,3228 Delladonna Circle,Worcester,MA,1605
1634,Calla,Wornum,12/3/64,845 Eliot Parkway,Boston,MA,2283
1635,Orin,Clapshaw,1/21/03,323 Monterey Point,Manchester,NH,3105
1636,Rana,Willerstone,5/21/77,66428 Sutherland Hill,Newton,MA,2162
1637,Garald,Wooffinden,2/27/60,9 Acker Avenue,Worcester,MA,1605
1638,Cornelius,Tebbit,6/18/82,4 Namekagon Road,Springfield,MA,1129
1639,Mahalia,Warde,6/26/20,12 Novick Crossing,Worcester,MA,1610
1640,Blaire,Strippel,10/1/10,27 Crowley Crossing,Worcester,MA,1654
1641,Petronille,Kemson,1/14/90,5536 Crescent Oaks Avenue,Springfield,MA,1152
1642,Rutter,Margett,10/13/12,705 Nevada Drive,Brockton,MA,2305
1643,Scotti,Duro,10/16/18,2 Mendota Lane,Brockton,MA,2405
1644,Yolanthe,Hitschke,1/24/89,9 Larry Street,Waltham,MA,2453
1645,Kienan,Barbara,4/9/95,5787 Algoma Trail,Boston,MA,2216
1646,Aggie,Lesurf,4/25/92,64 School Street,Portsmouth,NH,214
1647,Blondelle,Edmund,6/27/17,50 Heffernan Hill,Boston,MA,2124
1648,Daryn,Frangione,9/17/68,04344 Carberry Plaza,Worcester,MA,1605
1649,Mariel,Pennington,8/17/02,536 Warbler Junction,Lynn,MA,1905
1650,Lanie,Shawcroft,2/19/73,1337 Sachtjen Way,Worcester,MA,1605
1651,Vincents,Snarr,6/26/18,5390 Shopko Junction,Worcester,MA,1605
1652,Keslie,Thomton,10/1/06,858 Kim Terrace,Boston,MA,2203
1653,Addi,Eltringham,7/20/83,15246 Old Shore Way,Boston,MA,2216
1654,Kizzee,Mellish,10/19/87,77718 Grim Hill,Springfield,MA,1114
1655,Carny,Gradon,7/27/07,31 Shopko Center,Boston,MA,2114
1656,Kit,Hacun,10/13/90,58994 Butterfield Trail,Brockton,MA,2305
1657,Jesselyn,Gennrich,10/21/19,29 Northview Center,Worcester,MA,1654
1658,Lorie,Bernardt,11/26/92,9073 Harper Way,Springfield,MA,1105
1659,Helli,Dilnot,9/23/80,9216 Myrtle Pass,Woburn,MA,1813
1660,Terese,Bagby,7/1/92,29 Glacier Hill Place,Newton,MA,2162
1661,Eartha,Sweating,7/21/83,0515 Paget Trail,Worcester,MA,1654
1662,Loraine,Schumacher,10/18/12,63296 Bartillon Lane,Brockton,MA,2405
1663,Dianemarie,Fleg,8/7/05,61301 8th Trail,Boston,MA,2203
1664,Arther,Syne,3/15/65,48 Kipling Parkway,Portsmouth,NH,214
1665,Nicoline,Lewry,1/22/95,739 Luster Road,Worcester,MA,1610
1666,Syd,Drewe,2/15/88,781 Artisan Center,Boston,MA,2114
1667,Kiele,Joel,12/26/89,4 Golden Leaf Alley,Portsmouth,NH,3804
1668,Irita,Vanetti,11/8/99,4 Continental Trail,Waltham,MA,2453
1669,Laural,Katte,11/16/63,29800 Westridge Drive,Newton,MA,2458
1670,Mario,Elmer,6/21/87,81475 Fallview Hill,Cambridge,MA,2142
1671,Dido,Coskerry,5/14/76,086 Sheridan Center,Springfield,MA,1152
1672,Donall,Curryer,8/9/20,49222 Harper Street,Brockton,MA,2405
1673,Celesta,Dollard,1/31/04,5991 Buell Drive,Boston,MA,2119
1674,Salvatore,Kiessel,5/9/86,744 Hazelcrest Pass,Boston,MA,2114
1675,Sid,Ewing,9/17/74,1521 Old Shore Avenue,Boston,MA,2109
1676,Pablo,Shatliffe,9/10/68,6 Gulseth Junction,Springfield,MA,1129
1677,Jermain,Stores,12/17/62,6 7th Parkway,Boston,MA,2163
1678,Jemimah,Yaus,12/27/61,57375 Susan Parkway,Worcester,MA,1610
1679,Connor,Trulock,1/28/65,424 Roth Road,Woburn,MA,1813
1680,Mela,Dennison,3/4/77,893 6th Parkway,Portsmouth,NH,214
1681,Courtney,Hickford,1/5/69,21708 Shopko Plaza,Boston,MA,2298
1682,Marja,Delacroux,4/22/92,686 Chinook Parkway,Newton,MA,2458
1683,Christophorus,Ingliby,7/17/82,0029 Graedel Junction,Brockton,MA,2405
1684,Janeczka,Sherebrook,6/2/00,25 Dapin Way,Portsmouth,NH,3804
1685,Lazaro,ducarme,4/11/12,8 Randy Park,Brockton,MA,2405
1686,Levey,Judd,3/13/61,1557 Sullivan Junction,Springfield,MA,1152
1687,Arielle,Kock,12/29/95,62002 Florence Crossing,Brockton,MA,2405
1688,Elsie,Braunes,9/8/09,326 Melvin Center,Portsmouth,NH,3804
1689,Christian,Farnfield,10/20/66,305 Superior Plaza,Springfield,MA,1105
1690,Timoteo,Knibley,9/12/10,8118 Eliot Court,Watertown,MA,2472
1691,Herrick,O'Hagan,3/16/95,376 Fisk Plaza,Watertown,MA,2472
1692,Flin,Mackinder,9/1/94,775 Namekagon Road,New Bedford,MA,2745
1693,Kendrick,Lebang,8/26/65,90379 Green Plaza,Worcester,MA,1654
1694,Ned,Comelini,4/7/08,12710 Old Shore Crossing,Boston,MA,2216
1695,Annadiana,Brotheridge,5/24/16,21156 Bunting Pass,Worcester,MA,1610
1696,Doralia,Skews,10/28/17,50328 Hazelcrest Terrace,Springfield,MA,1152
1697,Freddi,Babonau,11/16/13,5 Summit Alley,Portsmouth,NH,214
1698,Erroll,Benditt,10/3/88,06 Vahlen Parkway,Springfield,MA,1114
1699,Nananne,Lautie,10/29/60,9 Esch Avenue,Lynn,MA,1905
1700,Eddie,Hazley,6/30/20,6 Valley Edge Plaza,Boston,MA,2298
1701,Susana,Raspel,9/17/20,82 Sunfield Avenue,Boston,MA,2119
1702,Carlin,Grzesiak,5/22/87,40313 Browning Place,Brockton,MA,2305
1703,Wyatan,Gonzalez,9/13/65,1 Chive Alley,Cambridge,MA,2142
1704,Del,Queen,8/13/88,5 Vera Circle,Woburn,MA,1813
1705,Henrietta,Germann,7/24/00,699 Elmside Parkway,Waltham,MA,2453
1706,Elsey,Blackney,5/20/92,1 Basil Hill,Watertown,MA,2472
1707,Fayre,Willavoys,11/22/86,26 Mesta Lane,Springfield,MA,1129
1708,Kara,Moggan,10/13/18,24 Sauthoff Park,Springfield,MA,1129
1709,Sophie,Luter,2/11/76,3576 Melrose Lane,Newton,MA,2458
1710,Tildie,Keeney,7/11/78,86639 Sycamore Pass,Boston,MA,2124
1711,Willetta,Menghi,8/14/80,9001 Prairieview Avenue,Boston,MA,2163
1712,Johanna,Leckey,11/4/21,67316 Red Cloud Road,Newton,MA,2458
1713,Eadith,Russel,2/7/98,89874 Waubesa Point,Brockton,MA,2405
1714,Jamaal,Fleckney,9/18/83,5226 Melrose Center,Woburn,MA,1813
1715,Ransom,Rochford,12/17/86,81664 Ludington Terrace,Worcester,MA,1654
1716,Fabiano,Lago,6/7/64,04702 Thierer Point,Springfield,MA,1129
1717,Alissa,Dober,1/14/83,22 Grasskamp Point,Lynn,MA,1905
1718,Tabitha,Droghan,1/31/07,3853 Starling Street,Boston,MA,2208
1719,Laryssa,Atthow,11/9/90,88 Drewry Junction,Worcester,MA,1654
1720,Tonie,Scocroft,10/30/16,132 North Trail,Boston,MA,2104
1721,Flinn,Garland,9/23/61,26 Old Shore Hill,Manchester,NH,3105
1722,Ira,Child,7/19/12,0078 Blue Bill Park Pass,Boston,MA,2203
1723,Kathie,Studde,1/21/81,601 Pearson Junction,Boston,MA,2119
1724,Darda,Mapp,8/14/69,49 Morningstar Trail,Watertown,MA,2472
1725,Brock,Escalero,4/22/80,724 Prairieview Junction,Springfield,MA,1105
1726,Ninetta,Agdahl,10/29/99,3889 Jenifer Junction,Boston,MA,2119
1727,Hillary,Garley,6/8/14,49802 Vidon Circle,Portsmouth,NH,214
1728,Cindie,Searchwell,12/24/89,81 Crest Line Circle,Springfield,MA,1152
1729,Adey,Hanniger,8/29/08,58 Onsgard Drive,Manchester,NH,3105
1730,Case,Pardon,8/28/66,895 Lighthouse Bay Street,Boston,MA,2119
1731,Ula,Halksworth,6/3/98,4 Heffernan Court,Waltham,MA,2453
1732,Foster,Lefley,11/16/66,6429 Dawn Street,Worcester,MA,1605
1733,Bastian,Kelleher,11/30/88,6542 Starling Parkway,Woburn,MA,1813
1734,Allene,Gamell,3/28/21,6500 Southridge Street,Worcester,MA,1654
1735,Lynnell,Antonacci,6/8/21,6 Northfield Park,Boston,MA,2119
1736,Kiley,Augar,11/21/14,6 Dorton Center,Springfield,MA,1129
1737,Christy,McFfaden,8/17/14,096 Monterey Circle,Brockton,MA,2405
1738,Wren,Singleton,1/19/95,0 Tennessee Avenue,Boston,MA,2298
1739,Huntley,Petworth,9/10/86,7984 Hermina Park,Worcester,MA,1654
1740,Piggy,Morfell,12/4/69,69 Quincy Hill,Portsmouth,NH,214
1741,Dunstan,Guirard,9/7/77,50368 Lindbergh Pass,Boston,MA,2163
1742,Corbet,Juara,6/7/79,2 Anthes Place,Boston,MA,2298
1743,Chrysler,Roblou,7/11/03,646 Southridge Street,Worcester,MA,1605
1744,Dedie,Ayree,1/15/13,254 Rieder Way,Cambridge,MA,2142
1745,Dulci,Dayes,1/22/06,34196 Waywood Center,Boston,MA,2114
1746,Stanton,Sapsforde,7/15/68,0402 David Terrace,Portsmouth,NH,214
1747,Doug,Keston,7/29/87,0096 Morning Center,Springfield,MA,1152
1748,Claudianus,Mussilli,1/18/07,17845 Redwing Way,Worcester,MA,1610
1749,Darleen,Mapowder,1/16/20,1 Londonderry Trail,Springfield,MA,1152
1750,Abbie,Wardlaw,10/16/87,3771 Hoard Pass,Springfield,MA,1152
1751,Whitaker,Querree,1/29/94,435 Little Fleur Terrace,Boston,MA,2163
1752,Timothea,Kellog,10/10/95,767 Oriole Center,New Bedford,MA,2745
1753,Gilly,Gladdolph,1/7/97,2 Mcbride Park,Portsmouth,NH,3804
1754,Breena,Bernardeschi,7/7/85,9 Continental Circle,Boston,MA,2216
1755,Brynne,Houlston,12/7/90,9 Pennsylvania Terrace,Boston,MA,2119
1756,Pammi,Randell,11/22/09,423 Bartillon Avenue,Boston,MA,2119
1757,Viva,Rome,1/10/69,85591 Grasskamp Park,Springfield,MA,1114
1758,Rosamond,Matzkaitis,1/7/75,1 Superior Street,Newton,MA,2162
1759,Kally,Skillitt,9/3/71,7 Crownhardt Terrace,Boston,MA,2298
1760,Brittany,Wickes,3/1/97,49669 David Hill,Worcester,MA,1654
1761,Cleo,Duckering,9/3/80,4 Carpenter Terrace,Boston,MA,2109
1762,Evelina,Pasfield,8/13/93,0653 Mcguire Junction,Brockton,MA,2305
1763,Anjanette,Riseborough,12/18/12,1351 Mallard Center,Boston,MA,2124
1764,Conni,Aldis,8/22/96,7267 Holmberg Plaza,Boston,MA,2216
1765,Jacquelin,Liebrecht,4/10/10,62995 Heffernan Point,Portsmouth,NH,3804
1766,Jodi,Bartalini,9/25/06,34850 Marcy Point,Waltham,MA,2453
1767,Mickie,Albiston,11/24/09,8 Farragut Alley,Boston,MA,2119
1768,Terrance,Westell,10/3/98,1 Stone Corner Road,Boston,MA,2124
1769,Datha,Carwithen,4/25/12,390 Golf View Court,Boston,MA,2298
1770,Teodora,Balaam,8/16/88,522 Talmadge Avenue,Springfield,MA,1114
1771,Allsun,MacHostie,1/18/72,659 Northport Parkway,New Bedford,MA,2745
1772,Ofelia,Grimshaw,4/12/21,18 Loomis Parkway,Worcester,MA,1654
1773,Pat,Gammell,5/9/05,69 Oakridge Court,Lynn,MA,1905
1774,Alix,Plose,11/1/66,33 Dayton Plaza,Springfield,MA,1114
1775,Marchall,Howie,9/9/61,7587 Macpherson Alley,New Bedford,MA,2745
1776,Barri,Corneljes,8/28/61,77828 Little Fleur Alley,Worcester,MA,1605
1777,Emmett,Hitscher,4/4/08,733 Village Green Way,Boston,MA,2163
1778,Mallorie,Blockey,9/9/05,8159 Mayfield Alley,Springfield,MA,1105
1779,Mariam,Naerup,6/1/75,51 Commercial Junction,Boston,MA,2109
1780,Zilvia,Sorrel,4/23/68,44122 Myrtle Road,Newton,MA,2458
1781,Goldi,Glasscoo,3/29/14,0 Golf Pass,Worcester,MA,1654
1782,Tomasine,Porritt,6/20/98,33 Russell Drive,Worcester,MA,1610
1783,Zack,Stollenhof,11/21/07,892 Red Cloud Road,Springfield,MA,1105
1784,Yalonda,Stadden,5/22/97,27217 Mandrake Avenue,Brockton,MA,2405
1785,Billie,Chapell,12/8/69,33 Continental Parkway,Boston,MA,2109
1786,Berthe,Gooding,4/9/13,566 Moland Parkway,Boston,MA,2104
1787,Homer,Parradine,6/3/76,375 Ilene Plaza,Woburn,MA,1813
1788,Ardys,Ducker,4/21/87,77 Farmco Trail,Boston,MA,2208
1789,Ransom,Stutt,9/29/84,8270 Declaration Road,Boston,MA,2109
1790,Dayna,Poyle,1/10/86,4326 Porter Terrace,Boston,MA,2114
1791,Raffarty,Giacobilio,9/23/94,4913 Sutherland Pass,Worcester,MA,1654
1792,Carr,Couvert,10/3/77,71 Granby Point,Boston,MA,2124
1793,Estelle,Aron,8/12/71,47261 Lillian Street,Brockton,MA,2405
1794,Ives,Sclanders,6/11/17,97401 Nobel Avenue,Waltham,MA,2453
1795,Nicoli,Gierck,1/16/06,28440 Marquette Place,Springfield,MA,1114
1796,Merell,Peaple,5/17/64,26774 Elka Point,Boston,MA,2283
1797,Sib,Gonzales,12/1/78,2611 Oriole Way,Springfield,MA,1152
1798,Jaclyn,Yegorkov,9/18/02,190 Florence Lane,Watertown,MA,2472
1799,Rosemaria,Brandli,10/29/89,26 Fairfield Crossing,Springfield,MA,1105
1800,Beryle,Meier,11/6/05,146 Mccormick Crossing,Worcester,MA,1654
1801,Rozanne,Kemetz,12/5/71,25 Vera Center,Boston,MA,2124
1802,Shannon,Vinall,8/12/70,96 Independence Place,Boston,MA,2216
1803,Harriot,Gatling,12/18/96,34784 Stoughton Avenue,Boston,MA,2216
1804,Christy,Walters,1/25/85,55 Carberry Avenue,Worcester,MA,1654
1805,Kassia,Muddimer,1/3/68,36226 La Follette Pass,Boston,MA,2109
1806,Barnabe,Dunphie,1/17/12,5 Garrison Center,New Bedford,MA,2745
1807,Wendeline,De Gregoli,7/28/68,6457 Knutson Trail,Boston,MA,2163
1808,Sadie,O'Dempsey,2/28/20,782 Brentwood Court,Springfield,MA,1114
1809,Reuven,Aiken,1/11/94,242 Gateway Circle,Worcester,MA,1605
1810,Bryna,Cantero,1/21/99,706 Dixon Court,Springfield,MA,1129
1811,Carlin,Skym,4/13/84,2 Gale Junction,New Bedford,MA,2745
1812,Patten,Thurske,4/25/89,972 Marcy Alley,Worcester,MA,1605
1813,Wallie,Guesford,4/27/83,3182 Sutherland Way,Springfield,MA,1114
1814,Bea,Shyram,6/28/77,01907 Ruskin Point,Boston,MA,2283
1815,Priscilla,Penk,5/21/00,7 Ronald Regan Street,Newton,MA,2458
1816,Gavra,Chilver,11/28/75,27 Eagan Center,Brockton,MA,2305
1817,Odella,Colbrun,9/3/73,71 Di Loreto Street,Boston,MA,2298
1818,Esmeralda,Plumbridge,10/18/06,32305 Brown Place,Newton,MA,2162
1819,Jozef,Drinkhall,12/6/75,29477 Ronald Regan Street,Springfield,MA,1152
1820,Johny,Rosettini,7/12/92,02 Lillian Place,Boston,MA,2104
1821,Suellen,Hornbuckle,7/18/81,95 Hauk Place,Boston,MA,2216
1822,Boniface,Cale,3/16/85,2126 Hooker Court,Lynn,MA,1905
1823,Brnaba,Dever,1/7/90,1929 Clyde Gallagher Junction,Portsmouth,NH,3804
1824,Shantee,Itzik,2/9/99,4863 Thierer Point,Manchester,NH,3105
1825,Wayne,Geere,10/30/75,76 Michigan Park,Boston,MA,2298
1826,Terrie,Jachimak,3/30/13,6 Green Pass,Boston,MA,2163
1827,Rosalia,Swenson,12/22/84,5095 Comanche Court,Springfield,MA,1105
1828,Kain,Shire,1/24/72,4395 Cambridge Terrace,Brockton,MA,2305
1829,Becca,Cerith,9/16/20,17862 Vidon Lane,Boston,MA,2114
1830,Pooh,Chappelle,4/12/19,28 Fairfield Court,Boston,MA,2203
1831,Moselle,Stoner,10/19/19,6 Di Loreto Point,Boston,MA,2109
1832,Ivar,Haggerston,1/11/87,04 Forest Dale Park,Worcester,MA,1610
1833,Mildrid,Clemencet,8/31/79,0130 Anthes Avenue,Portsmouth,NH,3804
1834,Hughie,Shannahan,6/21/16,011 Laurel Junction,Portsmouth,NH,3804
1835,Leyla,Witherow,10/24/64,007 Eliot Junction,Boston,MA,2216
1836,Parrnell,Kincla,6/20/11,6089 Schurz Plaza,Lynn,MA,1905
1837,Alley,Alejo,2/24/72,6 Thackeray Lane,Boston,MA,2298
1838,Roslyn,Hevey,4/13/86,7 Vera Plaza,Worcester,MA,1610
1839,Vernen,Raftery,2/22/10,20898 Ridgeway Court,Boston,MA,2104
1840,Sisely,MacElholm,9/23/65,4977 Florence Center,Brockton,MA,2405
1841,Lezlie,De Coursey,12/26/07,49323 Prentice Way,Boston,MA,2208
1842,Jerome,Roz,4/30/84,42 Declaration Alley,Portsmouth,NH,3804
1843,Kristien,Alster,11/21/68,8616 Melvin Circle,Boston,MA,2216
1844,Stanton,Sallier,12/27/60,3031 Cordelia Trail,Manchester,NH,3105
1845,Terrill,Finey,6/9/98,852 Buena Vista Way,Boston,MA,2163
1846,Benedetta,Duffrie,11/30/96,617 Cardinal Plaza,Boston,MA,2216
1847,Shem,Hardwin,6/17/60,404 Grim Park,Boston,MA,2114
1848,Katina,Keech,3/12/98,7 Schlimgen Court,Watertown,MA,2472
1849,Ulrick,Normadell,5/14/83,1 Mcbride Court,Springfield,MA,1152
1850,Jodee,Ziehm,4/2/97,93 Bay Point,Lynn,MA,1905
1851,Rosemaria,Charnock,12/26/06,908 Hanover Junction,Worcester,MA,1610
1852,Rachele,Binny,2/12/93,9 Thompson Park,Brockton,MA,2405
1853,Nikolas,Snowsill,4/9/19,00 Mayer Parkway,Springfield,MA,1129
1854,Del,Biddle,6/19/02,8 Maywood Center,Boston,MA,2114
1855,Raddy,Doy,10/13/99,9187 Main Avenue,Springfield,MA,1129
1856,Elysia,Warstall,8/23/61,52319 Spenser Center,Boston,MA,2208
1857,Derwin,Dessaur,7/18/66,8158 Lotheville Avenue,Watertown,MA,2472
1858,Augustin,Bridgeland,5/1/78,4 Jay Center,Boston,MA,2163
1859,Calla,Trimbey,11/13/62,799 Gina Parkway,Boston,MA,2208
1860,Paolina,Handaside,1/20/18,378 Quincy Trail,Springfield,MA,1152
1861,Shurwood,Sharma,3/21/08,84191 Moose Drive,Boston,MA,2104
1862,Alwin,Ciccetti,12/4/12,35 Glendale Lane,Cambridge,MA,2142
1863,Woodrow,Krochmann,3/25/03,391 Carpenter Center,Watertown,MA,2472
1864,Nicko,Tejada,1/28/83,52 Eliot Court,Boston,MA,2124
1865,Bary,Cropp,7/7/09,574 Emmet Lane,Portsmouth,NH,214
1866,Odey,Emerine,8/5/87,51 Pine View Way,Worcester,MA,1610
1867,Charmaine,Runcie,5/21/21,35 Kensington Lane,Cambridge,MA,2142
1868,Rosamund,Thuillier,3/2/07,5723 Red Cloud Drive,Boston,MA,2104
1869,Marleah,Laviste,11/22/20,62 Pankratz Court,Boston,MA,2109
1870,Udale,Iveson,6/22/66,632 Warbler Circle,Worcester,MA,1605
1871,Georgeanne,Prahm,6/28/65,31 Village Green Street,Lynn,MA,1905
1872,Donnajean,Wickes,12/17/82,8524 Shelley Pass,Springfield,MA,1114
1873,Ambrosi,Fligg,11/18/63,20158 Spenser Hill,Worcester,MA,1654
1874,Jeffry,Espinha,2/5/90,851 Fremont Way,Springfield,MA,1129
1875,Nahum,Glazyer,10/12/19,8422 Dexter Junction,Boston,MA,2104
1876,Ginni,McGoon,6/2/83,41359 Scofield Drive,Brockton,MA,2405
1877,Jenine,Christofle,5/17/68,32074 Milwaukee Avenue,Brockton,MA,2305
1878,Barbey,Auletta,1/8/69,9832 Utah Street,Boston,MA,2114
1879,Kalinda,Solomonides,2/24/95,05 Prairie Rose Crossing,Boston,MA,2298
1880,Mariette,Richardt,3/3/14,31735 Bobwhite Avenue,Woburn,MA,1813
1881,Moselle,Shirley,10/18/84,26 Manufacturers Junction,Boston,MA,2124
1882,Hurlee,Mort,10/9/15,1 Monica Point,Springfield,MA,1114
1883,Etti,Coysh,10/21/20,455 Charing Cross Park,Brockton,MA,2405
1884,Westley,Lunge,2/10/21,0 Bunting Park,Springfield,MA,1129
1885,Nadine,Greensted,5/15/97,151 Saint Paul Street,Boston,MA,2124
1886,Rufe,Dumigan,2/22/13,5 Golf Crossing,Cambridge,MA,2142
1887,Anthe,Kurten,9/6/76,45 Forster Way,Boston,MA,2114
1888,Kacey,Hyde-Chambers,11/30/75,94 Corscot Crossing,Woburn,MA,1813
1889,Iain,Schirak,8/17/92,2 Dottie Terrace,Boston,MA,2298
1890,Glenine,Haddy,12/16/79,4 Thackeray Avenue,Portsmouth,NH,214
1891,Claretta,Dyett,6/6/06,95 Almo Center,Boston,MA,2104
1892,William,Jurick,12/5/63,2 Mcguire Court,Boston,MA,2283
1893,Rozele,Chace,12/21/06,6 Manitowish Crossing,Waltham,MA,2453
1894,Ailsun,Brende,11/3/91,18079 Gale Place,Boston,MA,2298
1895,Tye,Tuffey,11/10/04,4321 Carey Way,Portsmouth,NH,3804
1896,Cy,Paoloni,11/13/16,86 Mitchell Park,Boston,MA,2109
1897,Celisse,Woollam,7/4/74,4991 Hoard Park,Brockton,MA,2305
1898,Korey,Stanislaw,1/29/78,3573 Independence Way,Waltham,MA,2453
1899,Bernardine,Pomfrett,12/4/99,79 David Point,Brockton,MA,2305
1900,Iggie,Heasman,5/19/78,895 Lotheville Crossing,Waltham,MA,2453
1901,Linnea,Turpey,11/30/10,80 Mendota Crossing,Boston,MA,2163
1902,Nani,Scamerden,6/6/92,4584 Nevada Terrace,Watertown,MA,2472
1903,Harvey,Hovy,4/15/82,691 Ramsey Point,Boston,MA,2109
1904,Sigismondo,Gherardelli,8/18/77,1 Alpine Plaza,Boston,MA,2203
1905,Natala,Jenking,5/28/90,76256 Lakewood Gardens Center,Newton,MA,2458
1906,Deloria,Demageard,5/5/91,8 1st Pass,Brockton,MA,2405
1907,Devy,Corr,7/17/75,3865 Elka Parkway,Boston,MA,2216
1908,Garret,Milkins,6/8/85,09215 Columbus Crossing,Worcester,MA,1605
1909,Maxwell,Danielli,9/9/02,1326 Kings Circle,Boston,MA,2203
1910,Shane,Baudin,6/16/73,9 8th Trail,Newton,MA,2162
1911,Ines,Fasey,9/17/19,9096 Sundown Plaza,Springfield,MA,1129
1912,Viv,Fowles,1/5/90,7628 Nobel Hill,Boston,MA,2124
1913,Ogdan,Aronstein,9/6/72,25090 Merrick Alley,New Bedford,MA,2745
1914,Amandi,Arlt,10/22/10,99 Chive Avenue,Brockton,MA,2305
1915,Maurise,MacGorrie,11/9/84,610 Cordelia Point,Lynn,MA,1905
1916,Darius,Hudspeth,6/8/06,10024 Logan Court,Springfield,MA,1152
1917,Devlin,Blaine,9/15/81,8508 Cambridge Hill,Boston,MA,2124
1918,Jamey,Calken,4/30/08,3010 Sundown Place,Portsmouth,NH,214
1919,Blanca,Seggie,8/23/76,41219 Carpenter Parkway,Springfield,MA,1129
1920,Daloris,Morcom,7/11/70,8039 Havey Point,Portsmouth,NH,3804
1921,Dillon,Hurdiss,10/23/88,961 Sheridan Pass,Boston,MA,2283
1922,Aleen,Giacopazzi,6/7/95,72 Veith Pass,Worcester,MA,1654
1923,Rabbi,Pittford,4/30/10,08692 Crest Line Plaza,Worcester,MA,1654
1924,Prentice,Dayton,8/13/84,115 Logan Hill,Boston,MA,2298
1925,Teresa,Short,7/2/99,68 Macpherson Alley,Worcester,MA,1605
1926,Sheilah,Barbey,11/28/21,8288 Chive Hill,Boston,MA,2298
1927,Karee,Braikenridge,2/11/99,03 Mesta Circle,Lynn,MA,1905
1928,Ev,Ridgwell,1/13/84,9 Delaware Way,Boston,MA,2114
1929,Lemar,Moralee,2/19/03,0 Northport Terrace,Newton,MA,2458
1930,Desiree,Keddle,8/13/87,3 Mesta Place,Boston,MA,2216
1931,Eudora,Alesio,2/20/09,1 Moland Road,Boston,MA,2208
1932,Mikaela,Olczyk,10/6/06,10 Division Court,Boston,MA,2216
1933,Osgood,Mapston,1/26/98,7745 Division Center,Lynn,MA,1905
1934,Michel,Cordie,2/6/76,7248 Center Pass,Watertown,MA,2472
1935,Aila,Maltby,5/28/74,57924 Dapin Alley,Springfield,MA,1129
1936,Arnold,Facher,11/14/62,8767 Pine View Way,Worcester,MA,1610
1937,Larisa,Vinick,6/7/03,3271 Tennessee Drive,Boston,MA,2114
1938,Andy,Spillett,4/13/16,17477 Stoughton Pass,Boston,MA,2283
1939,Melinde,Upham,5/29/97,77 Paget Circle,Worcester,MA,1654
1940,Kliment,Macbeth,2/25/08,68 Moulton Terrace,Watertown,MA,2472
1941,Vinny,Aleksandrov,7/18/92,2 Springview Plaza,Boston,MA,2124
1942,Dillon,Gantz,6/26/12,574 Lakeland Point,Portsmouth,NH,214
1943,Marybelle,Sambell,3/11/65,1 Sunbrook Road,Watertown,MA,2472
1944,Jacklyn,Rosson,7/3/71,2384 Pennsylvania Hill,Boston,MA,2109
1945,Jeanie,McCamish,9/12/95,09 Vernon Circle,Lynn,MA,1905
1946,Evan,Screase,2/1/83,45319 Susan Alley,Boston,MA,2114
1947,Jori,Gonthard,6/4/99,33 7th Drive,Newton,MA,2162
1948,Garvy,Brombell,4/26/75,3 Westerfield Circle,Boston,MA,2283
1949,Carmela,Cumberbatch,10/6/05,7247 Crescent Oaks Point,Portsmouth,NH,214
1950,Chrisse,Norway,9/30/18,646 Anthes Hill,Springfield,MA,1114
1951,Lorrie,Russel,5/31/75,498 Harper Crossing,Manchester,NH,3105
1952,Ian,Thursfield,10/25/82,32230 Jenna Drive,Cambridge,MA,2142
1953,Valenka,Tonepohl,7/16/10,34283 Bobwhite Avenue,Portsmouth,NH,214
1954,Mada,Jenicek,4/13/20,2605 Melby Street,Manchester,NH,3105
1955,Heddi,Hellwing,7/1/60,31682 Gale Park,Newton,MA,2458
1956,Rosco,Bradman,12/30/98,24536 Huxley Junction,Boston,MA,2119
1957,Tarrance,Gowers,8/1/06,87732 Clemons Place,Worcester,MA,1654
1958,Gustavo,Berg,9/25/85,659 Westend Parkway,Boston,MA,2124
1959,Margaux,Cheyney,11/18/81,0 Springview Plaza,Springfield,MA,1129
1960,Ambros,Shane,1/30/60,40874 Walton Street,Boston,MA,2114
1961,Leonard,Raffeorty,12/2/06,0 Eggendart Drive,Boston,MA,2208
1962,Erasmus,Stockney,5/14/13,1298 Anthes Hill,Boston,MA,2124
1963,Toni,Happer,1/19/91,41355 Lillian Way,Boston,MA,2216
1964,Chanda,Poundford,12/7/99,8 Raven Trail,Brockton,MA,2305
1965,Park,Hellmer,6/3/21,408 Utah Lane,Woburn,MA,1813
1966,Auberta,Kinsman,8/23/92,31779 Evergreen Hill,New Bedford,MA,2745
1967,Idalia,Hemmingway,6/28/94,52 Novick Pass,Springfield,MA,1105
1968,Lane,Draycott,2/17/72,8 Darwin Hill,Boston,MA,2208
1969,Pattie,Stampfer,10/16/15,9 Farmco Avenue,Boston,MA,2124
1970,Milicent,Melrose,5/16/64,180 Manley Road,Springfield,MA,1114
1971,Marian,Muller,10/21/61,35 Merrick Drive,Springfield,MA,1152
1972,Austin,Atlee,3/17/60,539 Stone Corner Place,Lynn,MA,1905
1973,Roman,Dalling,10/28/19,22 Johnson Trail,Springfield,MA,1114
1974,Vaclav,Simpkins,5/2/75,6 Buena Vista Circle,Springfield,MA,1105
1975,Arie,Horsfield,10/24/06,7031 Lien Center,Boston,MA,2216
1976,Kip,Ricards,3/7/81,1047 Karstens Way,Boston,MA,2216
1977,Randy,Scneider,10/30/11,8644 Morrow Terrace,Lynn,MA,1905
1978,Avrom,McGiven,2/10/90,89 Oxford Center,Worcester,MA,1610
1979,Gino,Tolotti,5/6/66,7595 Lakeland Park,Boston,MA,2109
1980,Lamond,McNae,8/25/96,776 Crest Line Road,Boston,MA,2109
1981,Byram,Fesby,9/13/82,9 Menomonie Parkway,Boston,MA,2109
1982,Stephine,Faudrie,7/30/82,9 Comanche Point,Boston,MA,2283
1983,Gib,Oertzen,11/23/61,00 Raven Place,Portsmouth,NH,3804
1984,Savina,Kensy,6/18/61,2 Moland Road,Lynn,MA,1905
1985,Brit,Gierok,12/27/67,5 Hoard Circle,Boston,MA,2298
1986,Cherry,Callen,11/11/02,38 Northridge Plaza,Boston,MA,2163
1987,Camel,Ruppele,3/18/65,73 Red Cloud Crossing,Newton,MA,2162
1988,Annadiane,Haggerty,8/3/05,05 Mayer Trail,Worcester,MA,1605
1989,Warner,Vlies,9/6/15,8165 Nelson Road,Waltham,MA,2453
1990,Ardra,Guitte,6/12/17,00 Springs Pass,Boston,MA,2208
1991,Don,Rustich,6/23/62,3934 Anderson Drive,Worcester,MA,1605
1992,Lukas,Farran,9/2/05,5630 Springview Crossing,Worcester,MA,1605
1993,Allyce,Lait,1/15/06,8720 Havey Place,Lynn,MA,1905
1994,Kathy,Braywood,2/8/83,69197 Birchwood Road,Worcester,MA,1610
1995,Free,Coat,11/22/09,168 Arkansas Plaza,Boston,MA,2114
1996,Horatius,Hardwidge,7/7/09,5200 Hoard Lane,Watertown,MA,2472
1997,Rhett,Wastie,4/25/71,567 Shopko Junction,Portsmouth,NH,3804
1998,Rita,Janca,1/28/75,70791 Becker Avenue,Waltham,MA,2453
1999,Martie,Hassell,5/10/07,19627 Weeping Birch Place,Springfield,MA,1152
2000,Yule,Andresser,2/18/90,5204 Canary Pass,Springfield,MA,1152